<?xml version="1.0" ?><gpx xmlns="http://www.topografix.com/GPX/1/1" creator="GaiaGPS" version="1.1" xmlns:xsi="http://www.w3.org/2001/XMLSchema-instance" xsi:schemaLocation="http://www.topografix.com/GPX/1/1 http://www.topografix.com/GPX/1/1/gpx.xsd"><rte><name>Ponca to Pruitt </name><desc></desc><extensions><line xmlns="http://www.topografix.com/GPX/gpx_style/0/2"><color>4ABD32</color></line></extensions><rtept lat="36.021504" lon="-93.355408"><ele>308.4</ele><time>2026-07-16T02:02:06Z</time></rtept><rtept lat="36.021741" lon="-93.355331"><ele>308.2</ele><time>2026-07-16T02:02:06Z</time></rtept><rtept lat="36.022945" lon="-93.354997"><ele>304.1</ele><time>2026-07-16T02:02:06Z</time></rtept><rtept lat="36.023973" lon="-93.354945"><ele>305.0</ele><time>2026-07-16T02:02:06Z</time></rtept><rtept lat="36.024947" lon="-93.355015"><ele>304.9</ele><time>2026-07-16T02:02:06Z</time></rtept><rtept lat="36.025917" lon="-93.354542"><ele>304.2</ele><time>2026-07-16T02:02:06Z</time></rtept><rtept lat="36.026017" lon="-93.354384"><ele>304.2</ele><time>2026-07-16T02:02:06Z</time></rtept><rtept lat="36.026262" lon="-93.353999"><ele>306.2</ele><time>2026-07-16T02:02:06Z</time></rtept><rtept lat="36.027824" lon="-93.350827"><ele>305.0</ele><time>2026-07-16T02:02:06Z</time></rtept><rtept lat="36.029012" lon="-93.348414"><ele>305.8</ele><time>2026-07-16T02:02:06Z</time></rtept><rtept lat="36.02922" lon="-93.348573"><ele>306.0</ele><time>2026-07-16T02:02:06Z</time></rtept><rtept lat="36.029444" lon="-93.348389"><ele>305.9</ele><time>2026-07-16T02:02:06Z</time></rtept><rtept lat="36.029669" lon="-93.348204"><ele>305.8</ele><time>2026-07-16T02:02:06Z</time></rtept><rtept lat="36.029893" lon="-93.348019"><ele>305.9</ele><time>2026-07-16T02:02:06Z</time></rtept><rtept lat="36.030118" lon="-93.347834"><ele>305.1</ele><time>2026-07-16T02:02:06Z</time></rtept><rtept lat="36.030343" lon="-93.347649"><ele>304.8</ele><time>2026-07-16T02:02:06Z</time></rtept><rtept lat="36.030567" lon="-93.347465"><ele>304.6</ele><time>2026-07-16T02:02:06Z</time></rtept><rtept lat="36.030792" lon="-93.34728"><ele>305.0</ele><time>2026-07-16T02:02:06Z</time></rtept><rtept lat="36.031016" lon="-93.347095"><ele>305.1</ele><time>2026-07-16T02:02:06Z</time></rtept><rtept lat="36.031241" lon="-93.34691"><ele>305.8</ele><time>2026-07-16T02:02:06Z</time></rtept><rtept lat="36.031466" lon="-93.346725"><ele>305.0</ele><time>2026-07-16T02:02:06Z</time></rtept><rtept lat="36.03169" lon="-93.34654"><ele>305.3</ele><time>2026-07-16T02:02:06Z</time></rtept><rtept lat="36.031915" lon="-93.346356"><ele>305.2</ele><time>2026-07-16T02:02:06Z</time></rtept><rtept lat="36.03214" lon="-93.346171"><ele>304.8</ele><time>2026-07-16T02:02:06Z</time></rtept><rtept lat="36.032364" lon="-93.345986"><ele>305.1</ele><time>2026-07-16T02:02:06Z</time></rtept><rtept lat="36.032589" lon="-93.345801"><ele>304.7</ele><time>2026-07-16T02:02:06Z</time></rtept><rtept lat="36.032813" lon="-93.345616"><ele>304.8</ele><time>2026-07-16T02:02:06Z</time></rtept><rtept lat="36.033038" lon="-93.345432"><ele>304.4</ele><time>2026-07-16T02:02:06Z</time></rtept><rtept lat="36.033263" lon="-93.345247"><ele>303.4</ele><time>2026-07-16T02:02:06Z</time></rtept><rtept lat="36.033487" lon="-93.345062"><ele>302.7</ele><time>2026-07-16T02:02:06Z</time></rtept><rtept lat="36.033712" lon="-93.344877"><ele>302.0</ele><time>2026-07-16T02:02:06Z</time></rtept><rtept lat="36.033936" lon="-93.344692"><ele>301.9</ele><time>2026-07-16T02:02:06Z</time></rtept><rtept lat="36.034161" lon="-93.344507"><ele>301.2</ele><time>2026-07-16T02:02:06Z</time></rtept><rtept lat="36.034193" lon="-93.344481"><ele>301.1</ele><time>2026-07-16T02:02:06Z</time></rtept><rtept lat="36.034193" lon="-93.344481"><ele>301.1</ele><time>2026-07-16T02:02:06Z</time></rtept><rtept lat="36.034412" lon="-93.344677"><ele>301.5</ele><time>2026-07-16T02:02:06Z</time></rtept><rtept lat="36.03463" lon="-93.344873"><ele>301.5</ele><time>2026-07-16T02:02:06Z</time></rtept><rtept lat="36.034848" lon="-93.345068"><ele>301.8</ele><time>2026-07-16T02:02:06Z</time></rtept><rtept lat="36.035067" lon="-93.345264"><ele>303.1</ele><time>2026-07-16T02:02:06Z</time></rtept><rtept lat="36.035285" lon="-93.34546"><ele>302.9</ele><time>2026-07-16T02:02:06Z</time></rtept><rtept lat="36.035504" lon="-93.345656"><ele>302.5</ele><time>2026-07-16T02:02:06Z</time></rtept><rtept lat="36.035722" lon="-93.345852"><ele>301.9</ele><time>2026-07-16T02:02:06Z</time></rtept><rtept lat="36.035941" lon="-93.346048"><ele>302.4</ele><time>2026-07-16T02:02:06Z</time></rtept><rtept lat="36.036159" lon="-93.346243"><ele>301.3</ele><time>2026-07-16T02:02:06Z</time></rtept><rtept lat="36.036377" lon="-93.346439"><ele>301.1</ele><time>2026-07-16T02:02:06Z</time></rtept><rtept lat="36.036596" lon="-93.346635"><ele>301.7</ele><time>2026-07-16T02:02:06Z</time></rtept><rtept lat="36.036814" lon="-93.346831"><ele>301.0</ele><time>2026-07-16T02:02:06Z</time></rtept><rtept lat="36.037033" lon="-93.347027"><ele>301.0</ele><time>2026-07-16T02:02:06Z</time></rtept><rtept lat="36.037251" lon="-93.347223"><ele>301.0</ele><time>2026-07-16T02:02:06Z</time></rtept><rtept lat="36.03747" lon="-93.347418"><ele>300.6</ele><time>2026-07-16T02:02:06Z</time></rtept><rtept lat="36.037688" lon="-93.347614"><ele>300.7</ele><time>2026-07-16T02:02:06Z</time></rtept><rtept lat="36.037906" lon="-93.34781"><ele>300.9</ele><time>2026-07-16T02:02:06Z</time></rtept><rtept lat="36.037954" lon="-93.347852"><ele>300.6</ele><time>2026-07-16T02:02:06Z</time></rtept><rtept lat="36.037954" lon="-93.347852"><ele>300.6</ele><time>2026-07-16T02:02:06Z</time></rtept><rtept lat="36.038182" lon="-93.347674"><ele>300.8</ele><time>2026-07-16T02:02:06Z</time></rtept><rtept lat="36.038409" lon="-93.347495"><ele>302.7</ele><time>2026-07-16T02:02:06Z</time></rtept><rtept lat="36.038637" lon="-93.347317"><ele>301.5</ele><time>2026-07-16T02:02:06Z</time></rtept><rtept lat="36.038865" lon="-93.347138"><ele>301.7</ele><time>2026-07-16T02:02:06Z</time></rtept><rtept lat="36.039093" lon="-93.34696"><ele>300.8</ele><time>2026-07-16T02:02:06Z</time></rtept><rtept lat="36.039321" lon="-93.346781"><ele>302.9</ele><time>2026-07-16T02:02:06Z</time></rtept><rtept lat="36.039549" lon="-93.346602"><ele>305.2</ele><time>2026-07-16T02:02:06Z</time></rtept><rtept lat="36.039777" lon="-93.346424"><ele>305.8</ele><time>2026-07-16T02:02:06Z</time></rtept><rtept lat="36.040005" lon="-93.346245"><ele>305.2</ele><time>2026-07-16T02:02:06Z</time></rtept><rtept lat="36.040233" lon="-93.346067"><ele>305.1</ele><time>2026-07-16T02:02:06Z</time></rtept><rtept lat="36.040461" lon="-93.345888"><ele>305.0</ele><time>2026-07-16T02:02:06Z</time></rtept><rtept lat="36.040688" lon="-93.34571"><ele>305.5</ele><time>2026-07-16T02:02:06Z</time></rtept><rtept lat="36.040916" lon="-93.345531"><ele>305.2</ele><time>2026-07-16T02:02:06Z</time></rtept><rtept lat="36.041144" lon="-93.345352"><ele>304.5</ele><time>2026-07-16T02:02:06Z</time></rtept><rtept lat="36.041372" lon="-93.345174"><ele>304.2</ele><time>2026-07-16T02:02:06Z</time></rtept><rtept lat="36.0416" lon="-93.344995"><ele>304.0</ele><time>2026-07-16T02:02:06Z</time></rtept><rtept lat="36.041828" lon="-93.344817"><ele>304.0</ele><time>2026-07-16T02:02:06Z</time></rtept><rtept lat="36.042056" lon="-93.344638"><ele>304.0</ele><time>2026-07-16T02:02:06Z</time></rtept><rtept lat="36.042284" lon="-93.34446"><ele>302.6</ele><time>2026-07-16T02:02:06Z</time></rtept><rtept lat="36.042512" lon="-93.344281"><ele>302.5</ele><time>2026-07-16T02:02:06Z</time></rtept><rtept lat="36.04274" lon="-93.344102"><ele>303.0</ele><time>2026-07-16T02:02:06Z</time></rtept><rtept lat="36.042968" lon="-93.343924"><ele>302.9</ele><time>2026-07-16T02:02:06Z</time></rtept><rtept lat="36.043195" lon="-93.343745"><ele>303.0</ele><time>2026-07-16T02:02:06Z</time></rtept><rtept lat="36.043423" lon="-93.343567"><ele>299.0</ele><time>2026-07-16T02:02:06Z</time></rtept><rtept lat="36.043651" lon="-93.343388"><ele>297.6</ele><time>2026-07-16T02:02:06Z</time></rtept><rtept lat="36.043831" lon="-93.343247"><ele>320.0</ele><time>2026-07-16T02:02:06Z</time></rtept><rtept lat="36.043831" lon="-93.343247"><ele>320.0</ele><time>2026-07-16T02:02:06Z</time></rtept><rtept lat="36.043681" lon="-93.34297"><ele>297.7</ele><time>2026-07-16T02:02:06Z</time></rtept><rtept lat="36.043531" lon="-93.342693"><ele>298.1</ele><time>2026-07-16T02:02:06Z</time></rtept><rtept lat="36.043381" lon="-93.342415"><ele>299.9</ele><time>2026-07-16T02:02:06Z</time></rtept><rtept lat="36.04323" lon="-93.342138"><ele>301.7</ele><time>2026-07-16T02:02:06Z</time></rtept><rtept lat="36.04308" lon="-93.341861"><ele>300.9</ele><time>2026-07-16T02:02:06Z</time></rtept><rtept lat="36.04293" lon="-93.341584"><ele>302.1</ele><time>2026-07-16T02:02:06Z</time></rtept><rtept lat="36.04278" lon="-93.341307"><ele>300.9</ele><time>2026-07-16T02:02:06Z</time></rtept><rtept lat="36.04263" lon="-93.34103"><ele>302.4</ele><time>2026-07-16T02:02:06Z</time></rtept><rtept lat="36.042479" lon="-93.340752"><ele>300.1</ele><time>2026-07-16T02:02:06Z</time></rtept><rtept lat="36.042329" lon="-93.340475"><ele>299.9</ele><time>2026-07-16T02:02:06Z</time></rtept><rtept lat="36.042179" lon="-93.340198"><ele>298.4</ele><time>2026-07-16T02:02:06Z</time></rtept><rtept lat="36.042029" lon="-93.339921"><ele>297.5</ele><time>2026-07-16T02:02:06Z</time></rtept><rtept lat="36.041878" lon="-93.339644"><ele>297.5</ele><time>2026-07-16T02:02:06Z</time></rtept><rtept lat="36.041728" lon="-93.339367"><ele>297.5</ele><time>2026-07-16T02:02:06Z</time></rtept><rtept lat="36.041578" lon="-93.339089"><ele>297.5</ele><time>2026-07-16T02:02:06Z</time></rtept><rtept lat="36.041428" lon="-93.338812"><ele>297.3</ele><time>2026-07-16T02:02:06Z</time></rtept><rtept lat="36.041278" lon="-93.338535"><ele>296.9</ele><time>2026-07-16T02:02:06Z</time></rtept><rtept lat="36.041127" lon="-93.338258"><ele>297.7</ele><time>2026-07-16T02:02:06Z</time></rtept><rtept lat="36.040977" lon="-93.337981"><ele>298.2</ele><time>2026-07-16T02:02:06Z</time></rtept><rtept lat="36.040827" lon="-93.337704"><ele>297.7</ele><time>2026-07-16T02:02:06Z</time></rtept><rtept lat="36.040677" lon="-93.337426"><ele>296.0</ele><time>2026-07-16T02:02:06Z</time></rtept><rtept lat="36.040527" lon="-93.337149"><ele>297.3</ele><time>2026-07-16T02:02:06Z</time></rtept><rtept lat="36.040423" lon="-93.336959"><ele>296.3</ele><time>2026-07-16T02:02:06Z</time></rtept><rtept lat="36.040423" lon="-93.336959"><ele>296.3</ele><time>2026-07-16T02:02:06Z</time></rtept><rtept lat="36.040228" lon="-93.336729"><ele>298.7</ele><time>2026-07-16T02:02:06Z</time></rtept><rtept lat="36.040032" lon="-93.336499"><ele>299.3</ele><time>2026-07-16T02:02:06Z</time></rtept><rtept lat="36.039837" lon="-93.336269"><ele>297.6</ele><time>2026-07-16T02:02:06Z</time></rtept><rtept lat="36.039641" lon="-93.336039"><ele>297.3</ele><time>2026-07-16T02:02:06Z</time></rtept><rtept lat="36.039446" lon="-93.335809"><ele>296.6</ele><time>2026-07-16T02:02:06Z</time></rtept><rtept lat="36.03925" lon="-93.335579"><ele>296.7</ele><time>2026-07-16T02:02:06Z</time></rtept><rtept lat="36.039243" lon="-93.335571"><ele>296.7</ele><time>2026-07-16T02:02:06Z</time></rtept><rtept lat="36.039243" lon="-93.335571"><ele>296.7</ele><time>2026-07-16T02:02:06Z</time></rtept><rtept lat="36.039174" lon="-93.335248"><ele>297.5</ele><time>2026-07-16T02:02:06Z</time></rtept><rtept lat="36.039106" lon="-93.334925"><ele>297.3</ele><time>2026-07-16T02:02:06Z</time></rtept><rtept lat="36.039038" lon="-93.334603"><ele>297.0</ele><time>2026-07-16T02:02:06Z</time></rtept><rtept lat="36.038969" lon="-93.33428"><ele>296.9</ele><time>2026-07-16T02:02:06Z</time></rtept><rtept lat="36.038901" lon="-93.333957"><ele>296.1</ele><time>2026-07-16T02:02:06Z</time></rtept><rtept lat="36.038832" lon="-93.333634"><ele>296.4</ele><time>2026-07-16T02:02:06Z</time></rtept><rtept lat="36.038828" lon="-93.333611"><ele>296.4</ele><time>2026-07-16T02:02:06Z</time></rtept><rtept lat="36.038828" lon="-93.333611"><ele>296.4</ele><time>2026-07-16T02:02:06Z</time></rtept><rtept lat="36.039045" lon="-93.333414"><ele>297.0</ele><time>2026-07-16T02:02:06Z</time></rtept><rtept lat="36.039262" lon="-93.333216"><ele>298.7</ele><time>2026-07-16T02:02:06Z</time></rtept><rtept lat="36.039479" lon="-93.333018"><ele>298.6</ele><time>2026-07-16T02:02:06Z</time></rtept><rtept lat="36.039696" lon="-93.33282"><ele>302.3</ele><time>2026-07-16T02:02:06Z</time></rtept><rtept lat="36.039914" lon="-93.332622"><ele>315.1</ele><time>2026-07-16T02:02:06Z</time></rtept><rtept lat="36.040012" lon="-93.332532"><ele>318.4</ele><time>2026-07-16T02:02:06Z</time></rtept><rtept lat="36.040012" lon="-93.332532"><ele>318.4</ele><time>2026-07-16T02:02:06Z</time></rtept><rtept lat="36.040281" lon="-93.332544"><ele>309.1</ele><time>2026-07-16T02:02:06Z</time></rtept><rtept lat="36.040551" lon="-93.332555"><ele>305.9</ele><time>2026-07-16T02:02:06Z</time></rtept><rtept lat="36.040821" lon="-93.332566"><ele>303.2</ele><time>2026-07-16T02:02:06Z</time></rtept><rtept lat="36.04109" lon="-93.332577"><ele>301.0</ele><time>2026-07-16T02:02:06Z</time></rtept><rtept lat="36.04136" lon="-93.332588"><ele>300.4</ele><time>2026-07-16T02:02:06Z</time></rtept><rtept lat="36.041505" lon="-93.332594"><ele>299.7</ele><time>2026-07-16T02:02:06Z</time></rtept><rtept lat="36.041505" lon="-93.332594"><ele>299.7</ele><time>2026-07-16T02:02:06Z</time></rtept><rtept lat="36.041768" lon="-93.332667"><ele>296.3</ele><time>2026-07-16T02:02:06Z</time></rtept><rtept lat="36.042032" lon="-93.332741"><ele>294.4</ele><time>2026-07-16T02:02:06Z</time></rtept><rtept lat="36.042295" lon="-93.332814"><ele>293.8</ele><time>2026-07-16T02:02:06Z</time></rtept><rtept lat="36.042558" lon="-93.332888"><ele>294.1</ele><time>2026-07-16T02:02:06Z</time></rtept><rtept lat="36.042821" lon="-93.332961"><ele>294.6</ele><time>2026-07-16T02:02:06Z</time></rtept><rtept lat="36.043084" lon="-93.333035"><ele>293.7</ele><time>2026-07-16T02:02:06Z</time></rtept><rtept lat="36.043347" lon="-93.333108"><ele>295.3</ele><time>2026-07-16T02:02:06Z</time></rtept><rtept lat="36.043611" lon="-93.333182"><ele>297.4</ele><time>2026-07-16T02:02:06Z</time></rtept><rtept lat="36.043874" lon="-93.333255"><ele>299.1</ele><time>2026-07-16T02:02:06Z</time></rtept><rtept lat="36.044137" lon="-93.333329"><ele>300.0</ele><time>2026-07-16T02:02:06Z</time></rtept><rtept lat="36.044175" lon="-93.333339"><ele>300.6</ele><time>2026-07-16T02:02:06Z</time></rtept><rtept lat="36.044175" lon="-93.333339"><ele>300.6</ele><time>2026-07-16T02:02:06Z</time></rtept><rtept lat="36.044383" lon="-93.333551"><ele>299.3</ele><time>2026-07-16T02:02:06Z</time></rtept><rtept lat="36.044592" lon="-93.333763"><ele>296.4</ele><time>2026-07-16T02:02:06Z</time></rtept><rtept lat="36.044801" lon="-93.333974"><ele>294.1</ele><time>2026-07-16T02:02:06Z</time></rtept><rtept lat="36.045009" lon="-93.334186"><ele>293.1</ele><time>2026-07-16T02:02:06Z</time></rtept><rtept lat="36.045218" lon="-93.334398"><ele>293.7</ele><time>2026-07-16T02:02:06Z</time></rtept><rtept lat="36.045426" lon="-93.33461"><ele>293.2</ele><time>2026-07-16T02:02:06Z</time></rtept><rtept lat="36.045635" lon="-93.334821"><ele>293.2</ele><time>2026-07-16T02:02:06Z</time></rtept><rtept lat="36.04577" lon="-93.334959"><ele>293.6</ele><time>2026-07-16T02:02:06Z</time></rtept><rtept lat="36.04577" lon="-93.334959"><ele>293.6</ele><time>2026-07-16T02:02:06Z</time></rtept><rtept lat="36.045934" lon="-93.335224"><ele>293.2</ele><time>2026-07-16T02:02:06Z</time></rtept><rtept lat="36.046098" lon="-93.335489"><ele>293.9</ele><time>2026-07-16T02:02:06Z</time></rtept><rtept lat="36.046262" lon="-93.335754"><ele>293.0</ele><time>2026-07-16T02:02:06Z</time></rtept><rtept lat="36.046426" lon="-93.336019"><ele>294.0</ele><time>2026-07-16T02:02:06Z</time></rtept><rtept lat="36.04659" lon="-93.336284"><ele>293.5</ele><time>2026-07-16T02:02:06Z</time></rtept><rtept lat="36.046754" lon="-93.336549"><ele>292.9</ele><time>2026-07-16T02:02:06Z</time></rtept><rtept lat="36.046918" lon="-93.336814"><ele>293.3</ele><time>2026-07-16T02:02:06Z</time></rtept><rtept lat="36.047" lon="-93.336947"><ele>292.9</ele><time>2026-07-16T02:02:06Z</time></rtept><rtept lat="36.047" lon="-93.336947"><ele>292.9</ele><time>2026-07-16T02:02:06Z</time></rtept><rtept lat="36.047239" lon="-93.337103"><ele>293.1</ele><time>2026-07-16T02:02:06Z</time></rtept><rtept lat="36.047477" lon="-93.337259"><ele>294.2</ele><time>2026-07-16T02:02:06Z</time></rtept><rtept lat="36.047716" lon="-93.337415"><ele>293.8</ele><time>2026-07-16T02:02:06Z</time></rtept><rtept lat="36.047954" lon="-93.337571"><ele>293.6</ele><time>2026-07-16T02:02:06Z</time></rtept><rtept lat="36.048192" lon="-93.337727"><ele>291.7</ele><time>2026-07-16T02:02:06Z</time></rtept><rtept lat="36.048376" lon="-93.337847"><ele>293.4</ele><time>2026-07-16T02:02:06Z</time></rtept><rtept lat="36.048376" lon="-93.337847"><ele>293.4</ele><time>2026-07-16T02:02:06Z</time></rtept><rtept lat="36.048623" lon="-93.337712"><ele>291.1</ele><time>2026-07-16T02:02:06Z</time></rtept><rtept lat="36.048869" lon="-93.337576"><ele>291.4</ele><time>2026-07-16T02:02:06Z</time></rtept><rtept lat="36.049116" lon="-93.33744"><ele>292.2</ele><time>2026-07-16T02:02:06Z</time></rtept><rtept lat="36.049362" lon="-93.337305"><ele>293.5</ele><time>2026-07-16T02:02:06Z</time></rtept><rtept lat="36.049609" lon="-93.337169"><ele>293.5</ele><time>2026-07-16T02:02:06Z</time></rtept><rtept lat="36.049855" lon="-93.337034"><ele>293.4</ele><time>2026-07-16T02:02:06Z</time></rtept><rtept lat="36.049899" lon="-93.337009"><ele>293.3</ele><time>2026-07-16T02:02:06Z</time></rtept><rtept lat="36.049899" lon="-93.337009"><ele>293.3</ele><time>2026-07-16T02:02:06Z</time></rtept><rtept lat="36.049946" lon="-93.336681"><ele>294.3</ele><time>2026-07-16T02:02:06Z</time></rtept><rtept lat="36.049992" lon="-93.336352"><ele>295.1</ele><time>2026-07-16T02:02:06Z</time></rtept><rtept lat="36.050039" lon="-93.336023"><ele>295.1</ele><time>2026-07-16T02:02:06Z</time></rtept><rtept lat="36.050085" lon="-93.335695"><ele>294.6</ele><time>2026-07-16T02:02:06Z</time></rtept><rtept lat="36.050132" lon="-93.335366"><ele>293.4</ele><time>2026-07-16T02:02:06Z</time></rtept><rtept lat="36.050179" lon="-93.335037"><ele>291.2</ele><time>2026-07-16T02:02:06Z</time></rtept><rtept lat="36.050225" lon="-93.334708"><ele>291.0</ele><time>2026-07-16T02:02:06Z</time></rtept><rtept lat="36.050257" lon="-93.334486"><ele>291.4</ele><time>2026-07-16T02:02:06Z</time></rtept><rtept lat="36.050257" lon="-93.334486"><ele>291.4</ele><time>2026-07-16T02:02:06Z</time></rtept><rtept lat="36.050177" lon="-93.334167"><ele>291.4</ele><time>2026-07-16T02:02:06Z</time></rtept><rtept lat="36.050098" lon="-93.333848"><ele>291.9</ele><time>2026-07-16T02:02:06Z</time></rtept><rtept lat="36.050018" lon="-93.333529"><ele>293.0</ele><time>2026-07-16T02:02:06Z</time></rtept><rtept lat="36.049939" lon="-93.333211"><ele>293.2</ele><time>2026-07-16T02:02:06Z</time></rtept><rtept lat="36.049859" lon="-93.332892"><ele>292.4</ele><time>2026-07-16T02:02:06Z</time></rtept><rtept lat="36.04978" lon="-93.332573"><ele>292.6</ele><time>2026-07-16T02:02:06Z</time></rtept><rtept lat="36.049701" lon="-93.332254"><ele>292.9</ele><time>2026-07-16T02:02:06Z</time></rtept><rtept lat="36.049621" lon="-93.331935"><ele>292.7</ele><time>2026-07-16T02:02:06Z</time></rtept><rtept lat="36.049542" lon="-93.331616"><ele>291.3</ele><time>2026-07-16T02:02:06Z</time></rtept><rtept lat="36.049462" lon="-93.331297"><ele>291.9</ele><time>2026-07-16T02:02:06Z</time></rtept><rtept lat="36.049383" lon="-93.330978"><ele>291.7</ele><time>2026-07-16T02:02:06Z</time></rtept><rtept lat="36.049303" lon="-93.330659"><ele>291.0</ele><time>2026-07-16T02:02:06Z</time></rtept><rtept lat="36.049266" lon="-93.330511"><ele>291.4</ele><time>2026-07-16T02:02:06Z</time></rtept><rtept lat="36.049266" lon="-93.330511"><ele>291.4</ele><time>2026-07-16T02:02:06Z</time></rtept><rtept lat="36.049027" lon="-93.330357"><ele>290.3</ele><time>2026-07-16T02:02:06Z</time></rtept><rtept lat="36.048788" lon="-93.330202"><ele>290.6</ele><time>2026-07-16T02:02:06Z</time></rtept><rtept lat="36.048549" lon="-93.330048"><ele>291.1</ele><time>2026-07-16T02:02:06Z</time></rtept><rtept lat="36.048309" lon="-93.329894"><ele>291.0</ele><time>2026-07-16T02:02:06Z</time></rtept><rtept lat="36.04807" lon="-93.32974"><ele>290.6</ele><time>2026-07-16T02:02:06Z</time></rtept><rtept lat="36.047831" lon="-93.329585"><ele>291.4</ele><time>2026-07-16T02:02:06Z</time></rtept><rtept lat="36.047785" lon="-93.329556"><ele>292.1</ele><time>2026-07-16T02:02:06Z</time></rtept><rtept lat="36.047785" lon="-93.329556"><ele>292.1</ele><time>2026-07-16T02:02:06Z</time></rtept><rtept lat="36.04785" lon="-93.329232"><ele>290.6</ele><time>2026-07-16T02:02:06Z</time></rtept><rtept lat="36.047916" lon="-93.328908"><ele>290.9</ele><time>2026-07-16T02:02:06Z</time></rtept><rtept lat="36.047981" lon="-93.328585"><ele>290.9</ele><time>2026-07-16T02:02:06Z</time></rtept><rtept lat="36.048046" lon="-93.328261"><ele>291.6</ele><time>2026-07-16T02:02:06Z</time></rtept><rtept lat="36.048112" lon="-93.327937"><ele>291.8</ele><time>2026-07-16T02:02:06Z</time></rtept><rtept lat="36.048177" lon="-93.327613"><ele>292.7</ele><time>2026-07-16T02:02:06Z</time></rtept><rtept lat="36.048242" lon="-93.327289"><ele>293.8</ele><time>2026-07-16T02:02:06Z</time></rtept><rtept lat="36.048308" lon="-93.326966"><ele>292.9</ele><time>2026-07-16T02:02:06Z</time></rtept><rtept lat="36.048373" lon="-93.326642"><ele>292.2</ele><time>2026-07-16T02:02:06Z</time></rtept><rtept lat="36.048388" lon="-93.326566"><ele>292.2</ele><time>2026-07-16T02:02:06Z</time></rtept><rtept lat="36.048388" lon="-93.326566"><ele>292.2</ele><time>2026-07-16T02:02:06Z</time></rtept><rtept lat="36.048506" lon="-93.326265"><ele>291.7</ele><time>2026-07-16T02:02:06Z</time></rtept><rtept lat="36.048624" lon="-93.325965"><ele>291.7</ele><time>2026-07-16T02:02:06Z</time></rtept><rtept lat="36.048742" lon="-93.325665"><ele>290.5</ele><time>2026-07-16T02:02:06Z</time></rtept><rtept lat="36.048859" lon="-93.325365"><ele>290.7</ele><time>2026-07-16T02:02:06Z</time></rtept><rtept lat="36.048977" lon="-93.325064"><ele>289.8</ele><time>2026-07-16T02:02:06Z</time></rtept><rtept lat="36.049095" lon="-93.324764"><ele>289.6</ele><time>2026-07-16T02:02:06Z</time></rtept><rtept lat="36.049212" lon="-93.324464"><ele>289.4</ele><time>2026-07-16T02:02:06Z</time></rtept><rtept lat="36.04933" lon="-93.324164"><ele>289.9</ele><time>2026-07-16T02:02:06Z</time></rtept><rtept lat="36.049448" lon="-93.323863"><ele>290.1</ele><time>2026-07-16T02:02:06Z</time></rtept><rtept lat="36.049566" lon="-93.323563"><ele>291.3</ele><time>2026-07-16T02:02:06Z</time></rtept><rtept lat="36.049683" lon="-93.323263"><ele>291.4</ele><time>2026-07-16T02:02:06Z</time></rtept><rtept lat="36.049801" lon="-93.322963"><ele>290.5</ele><time>2026-07-16T02:02:06Z</time></rtept><rtept lat="36.049919" lon="-93.322662"><ele>290.8</ele><time>2026-07-16T02:02:06Z</time></rtept><rtept lat="36.050036" lon="-93.322362"><ele>290.4</ele><time>2026-07-16T02:02:06Z</time></rtept><rtept lat="36.050154" lon="-93.322062"><ele>290.0</ele><time>2026-07-16T02:02:06Z</time></rtept><rtept lat="36.050272" lon="-93.321762"><ele>289.8</ele><time>2026-07-16T02:02:06Z</time></rtept><rtept lat="36.05039" lon="-93.321461"><ele>288.4</ele><time>2026-07-16T02:02:06Z</time></rtept><rtept lat="36.050507" lon="-93.321161"><ele>294.2</ele><time>2026-07-16T02:02:06Z</time></rtept><rtept lat="36.050562" lon="-93.32102"><ele>302.1</ele><time>2026-07-16T02:02:06Z</time></rtept><rtept lat="36.050562" lon="-93.32102"><ele>302.1</ele><time>2026-07-16T02:02:06Z</time></rtept><rtept lat="36.050299" lon="-93.321092"><ele>289.6</ele><time>2026-07-16T02:02:06Z</time></rtept><rtept lat="36.050035" lon="-93.321163"><ele>289.4</ele><time>2026-07-16T02:02:06Z</time></rtept><rtept lat="36.049772" lon="-93.321234"><ele>291.3</ele><time>2026-07-16T02:02:06Z</time></rtept><rtept lat="36.049508" lon="-93.321305"><ele>292.5</ele><time>2026-07-16T02:02:06Z</time></rtept><rtept lat="36.049244" lon="-93.321377"><ele>294.2</ele><time>2026-07-16T02:02:06Z</time></rtept><rtept lat="36.048981" lon="-93.321448"><ele>295.2</ele><time>2026-07-16T02:02:06Z</time></rtept><rtept lat="36.048717" lon="-93.321519"><ele>294.9</ele><time>2026-07-16T02:02:06Z</time></rtept><rtept lat="36.048454" lon="-93.32159"><ele>294.7</ele><time>2026-07-16T02:02:06Z</time></rtept><rtept lat="36.04819" lon="-93.321661"><ele>294.0</ele><time>2026-07-16T02:02:06Z</time></rtept><rtept lat="36.047927" lon="-93.321733"><ele>294.2</ele><time>2026-07-16T02:02:06Z</time></rtept><rtept lat="36.047663" lon="-93.321804"><ele>293.6</ele><time>2026-07-16T02:02:06Z</time></rtept><rtept lat="36.047399" lon="-93.321875"><ele>293.5</ele><time>2026-07-16T02:02:06Z</time></rtept><rtept lat="36.047136" lon="-93.321946"><ele>290.8</ele><time>2026-07-16T02:02:06Z</time></rtept><rtept lat="36.046872" lon="-93.322018"><ele>288.1</ele><time>2026-07-16T02:02:06Z</time></rtept><rtept lat="36.046806" lon="-93.322035"><ele>287.3</ele><time>2026-07-16T02:02:06Z</time></rtept><rtept lat="36.046806" lon="-93.322035"><ele>287.3</ele><time>2026-07-16T02:02:06Z</time></rtept><rtept lat="36.046538" lon="-93.322064"><ele>289.1</ele><time>2026-07-16T02:02:06Z</time></rtept><rtept lat="36.046269" lon="-93.322093"><ele>289.9</ele><time>2026-07-16T02:02:06Z</time></rtept><rtept lat="36.046" lon="-93.322122"><ele>290.0</ele><time>2026-07-16T02:02:06Z</time></rtept><rtept lat="36.045731" lon="-93.322151"><ele>290.0</ele><time>2026-07-16T02:02:06Z</time></rtept><rtept lat="36.045463" lon="-93.32218"><ele>289.9</ele><time>2026-07-16T02:02:06Z</time></rtept><rtept lat="36.045194" lon="-93.322209"><ele>289.2</ele><time>2026-07-16T02:02:06Z</time></rtept><rtept lat="36.044925" lon="-93.322238"><ele>288.3</ele><time>2026-07-16T02:02:06Z</time></rtept><rtept lat="36.044656" lon="-93.322267"><ele>288.2</ele><time>2026-07-16T02:02:06Z</time></rtept><rtept lat="36.044387" lon="-93.322296"><ele>288.6</ele><time>2026-07-16T02:02:06Z</time></rtept><rtept lat="36.044119" lon="-93.322325"><ele>289.1</ele><time>2026-07-16T02:02:06Z</time></rtept><rtept lat="36.04385" lon="-93.322354"><ele>289.1</ele><time>2026-07-16T02:02:06Z</time></rtept><rtept lat="36.043581" lon="-93.322383"><ele>288.2</ele><time>2026-07-16T02:02:06Z</time></rtept><rtept lat="36.043312" lon="-93.322413"><ele>286.9</ele><time>2026-07-16T02:02:06Z</time></rtept><rtept lat="36.043044" lon="-93.322442"><ele>286.1</ele><time>2026-07-16T02:02:06Z</time></rtept><rtept lat="36.043043" lon="-93.322442"><ele>286.1</ele><time>2026-07-16T02:02:06Z</time></rtept><rtept lat="36.043043" lon="-93.322442"><ele>286.1</ele><time>2026-07-16T02:02:06Z</time></rtept><rtept lat="36.042947" lon="-93.32213"><ele>286.8</ele><time>2026-07-16T02:02:06Z</time></rtept><rtept lat="36.04285" lon="-93.321818"><ele>288.3</ele><time>2026-07-16T02:02:06Z</time></rtept><rtept lat="36.042754" lon="-93.321507"><ele>289.3</ele><time>2026-07-16T02:02:06Z</time></rtept><rtept lat="36.042657" lon="-93.321195"><ele>290.7</ele><time>2026-07-16T02:02:06Z</time></rtept><rtept lat="36.04256" lon="-93.320884"><ele>290.6</ele><time>2026-07-16T02:02:06Z</time></rtept><rtept lat="36.042464" lon="-93.320572"><ele>290.3</ele><time>2026-07-16T02:02:06Z</time></rtept><rtept lat="36.042367" lon="-93.320261"><ele>290.0</ele><time>2026-07-16T02:02:06Z</time></rtept><rtept lat="36.042366" lon="-93.320256"><ele>290.0</ele><time>2026-07-16T02:02:06Z</time></rtept><rtept lat="36.042366" lon="-93.320256"><ele>290.0</ele><time>2026-07-16T02:02:06Z</time></rtept><rtept lat="36.042425" lon="-93.31993"><ele>289.2</ele><time>2026-07-16T02:02:06Z</time></rtept><rtept lat="36.042484" lon="-93.319605"><ele>288.4</ele><time>2026-07-16T02:02:06Z</time></rtept><rtept lat="36.042542" lon="-93.319279"><ele>289.5</ele><time>2026-07-16T02:02:06Z</time></rtept><rtept lat="36.042601" lon="-93.318953"><ele>290.3</ele><time>2026-07-16T02:02:06Z</time></rtept><rtept lat="36.04266" lon="-93.318628"><ele>289.3</ele><time>2026-07-16T02:02:06Z</time></rtept><rtept lat="36.042719" lon="-93.318302"><ele>287.0</ele><time>2026-07-16T02:02:06Z</time></rtept><rtept lat="36.042778" lon="-93.317976"><ele>286.9</ele><time>2026-07-16T02:02:06Z</time></rtept><rtept lat="36.042817" lon="-93.317762"><ele>285.4</ele><time>2026-07-16T02:02:06Z</time></rtept><rtept lat="36.042817" lon="-93.317762"><ele>285.4</ele><time>2026-07-16T02:02:06Z</time></rtept><rtept lat="36.042926" lon="-93.317456"><ele>285.1</ele><time>2026-07-16T02:02:06Z</time></rtept><rtept lat="36.043034" lon="-93.317151"><ele>285.6</ele><time>2026-07-16T02:02:06Z</time></rtept><rtept lat="36.043143" lon="-93.316846"><ele>285.4</ele><time>2026-07-16T02:02:06Z</time></rtept><rtept lat="36.043252" lon="-93.31654"><ele>285.8</ele><time>2026-07-16T02:02:06Z</time></rtept><rtept lat="36.043361" lon="-93.316235"><ele>285.8</ele><time>2026-07-16T02:02:06Z</time></rtept><rtept lat="36.04347" lon="-93.31593"><ele>285.0</ele><time>2026-07-16T02:02:06Z</time></rtept><rtept lat="36.043579" lon="-93.315625"><ele>285.1</ele><time>2026-07-16T02:02:06Z</time></rtept><rtept lat="36.043688" lon="-93.315319"><ele>285.3</ele><time>2026-07-16T02:02:06Z</time></rtept><rtept lat="36.043719" lon="-93.315233"><ele>286.1</ele><time>2026-07-16T02:02:06Z</time></rtept><rtept lat="36.043719" lon="-93.315233"><ele>286.1</ele><time>2026-07-16T02:02:06Z</time></rtept><rtept lat="36.043963" lon="-93.31509"><ele>285.1</ele><time>2026-07-16T02:02:06Z</time></rtept><rtept lat="36.044207" lon="-93.314948"><ele>284.7</ele><time>2026-07-16T02:02:06Z</time></rtept><rtept lat="36.044451" lon="-93.314806"><ele>284.5</ele><time>2026-07-16T02:02:06Z</time></rtept><rtept lat="36.044695" lon="-93.314664"><ele>284.8</ele><time>2026-07-16T02:02:06Z</time></rtept><rtept lat="36.044939" lon="-93.314522"><ele>284.8</ele><time>2026-07-16T02:02:06Z</time></rtept><rtept lat="36.045183" lon="-93.314379"><ele>284.9</ele><time>2026-07-16T02:02:06Z</time></rtept><rtept lat="36.045427" lon="-93.314237"><ele>284.5</ele><time>2026-07-16T02:02:06Z</time></rtept><rtept lat="36.045516" lon="-93.314185"><ele>284.1</ele><time>2026-07-16T02:02:06Z</time></rtept><rtept lat="36.045516" lon="-93.314185"><ele>284.1</ele><time>2026-07-16T02:02:06Z</time></rtept><rtept lat="36.045772" lon="-93.314292"><ele>284.8</ele><time>2026-07-16T02:02:06Z</time></rtept><rtept lat="36.046028" lon="-93.314399"><ele>284.5</ele><time>2026-07-16T02:02:06Z</time></rtept><rtept lat="36.046283" lon="-93.314505"><ele>284.1</ele><time>2026-07-16T02:02:06Z</time></rtept><rtept lat="36.046539" lon="-93.314612"><ele>285.3</ele><time>2026-07-16T02:02:06Z</time></rtept><rtept lat="36.046795" lon="-93.314718"><ele>283.2</ele><time>2026-07-16T02:02:06Z</time></rtept><rtept lat="36.04705" lon="-93.314825"><ele>284.3</ele><time>2026-07-16T02:02:06Z</time></rtept><rtept lat="36.047306" lon="-93.314932"><ele>284.3</ele><time>2026-07-16T02:02:06Z</time></rtept><rtept lat="36.047562" lon="-93.315038"><ele>284.6</ele><time>2026-07-16T02:02:06Z</time></rtept><rtept lat="36.047817" lon="-93.315145"><ele>284.3</ele><time>2026-07-16T02:02:06Z</time></rtept><rtept lat="36.048073" lon="-93.315251"><ele>283.7</ele><time>2026-07-16T02:02:06Z</time></rtept><rtept lat="36.048329" lon="-93.315358"><ele>284.4</ele><time>2026-07-16T02:02:06Z</time></rtept><rtept lat="36.048584" lon="-93.315465"><ele>284.1</ele><time>2026-07-16T02:02:06Z</time></rtept><rtept lat="36.04884" lon="-93.315571"><ele>283.9</ele><time>2026-07-16T02:02:06Z</time></rtept><rtept lat="36.048975" lon="-93.315628"><ele>284.8</ele><time>2026-07-16T02:02:06Z</time></rtept><rtept lat="36.048975" lon="-93.315628"><ele>284.8</ele><time>2026-07-16T02:02:06Z</time></rtept><rtept lat="36.049235" lon="-93.315539"><ele>286.1</ele><time>2026-07-16T02:02:06Z</time></rtept><rtept lat="36.049495" lon="-93.31545"><ele>286.8</ele><time>2026-07-16T02:02:06Z</time></rtept><rtept lat="36.049755" lon="-93.315361"><ele>286.8</ele><time>2026-07-16T02:02:06Z</time></rtept><rtept lat="36.050015" lon="-93.315272"><ele>287.0</ele><time>2026-07-16T02:02:06Z</time></rtept><rtept lat="36.050275" lon="-93.315183"><ele>286.7</ele><time>2026-07-16T02:02:06Z</time></rtept><rtept lat="36.050535" lon="-93.315095"><ele>286.0</ele><time>2026-07-16T02:02:06Z</time></rtept><rtept lat="36.050795" lon="-93.315006"><ele>285.5</ele><time>2026-07-16T02:02:06Z</time></rtept><rtept lat="36.051055" lon="-93.314917"><ele>283.8</ele><time>2026-07-16T02:02:06Z</time></rtept><rtept lat="36.051315" lon="-93.314828"><ele>283.5</ele><time>2026-07-16T02:02:06Z</time></rtept><rtept lat="36.051575" lon="-93.314739"><ele>283.1</ele><time>2026-07-16T02:02:06Z</time></rtept><rtept lat="36.051835" lon="-93.31465"><ele>286.9</ele><time>2026-07-16T02:02:06Z</time></rtept><rtept lat="36.052096" lon="-93.314561"><ele>291.6</ele><time>2026-07-16T02:02:06Z</time></rtept><rtept lat="36.052356" lon="-93.314473"><ele>292.9</ele><time>2026-07-16T02:02:06Z</time></rtept><rtept lat="36.052616" lon="-93.314384"><ele>294.2</ele><time>2026-07-16T02:02:06Z</time></rtept><rtept lat="36.052614" lon="-93.314384"><ele>294.2</ele><time>2026-07-16T02:02:06Z</time></rtept><rtept lat="36.052614" lon="-93.314384"><ele>294.2</ele><time>2026-07-16T02:02:06Z</time></rtept><rtept lat="36.052786" lon="-93.314127"><ele>296.9</ele><time>2026-07-16T02:02:06Z</time></rtept><rtept lat="36.052958" lon="-93.31387"><ele>298.5</ele><time>2026-07-16T02:02:06Z</time></rtept><rtept lat="36.05313" lon="-93.313612"><ele>297.9</ele><time>2026-07-16T02:02:06Z</time></rtept><rtept lat="36.053301" lon="-93.313355"><ele>295.1</ele><time>2026-07-16T02:02:06Z</time></rtept><rtept lat="36.053473" lon="-93.313098"><ele>292.0</ele><time>2026-07-16T02:02:06Z</time></rtept><rtept lat="36.053645" lon="-93.312841"><ele>291.8</ele><time>2026-07-16T02:02:06Z</time></rtept><rtept lat="36.053817" lon="-93.312583"><ele>290.5</ele><time>2026-07-16T02:02:06Z</time></rtept><rtept lat="36.053989" lon="-93.312326"><ele>289.4</ele><time>2026-07-16T02:02:06Z</time></rtept><rtept lat="36.054161" lon="-93.312069"><ele>289.1</ele><time>2026-07-16T02:02:06Z</time></rtept><rtept lat="36.054333" lon="-93.311812"><ele>288.8</ele><time>2026-07-16T02:02:06Z</time></rtept><rtept lat="36.054504" lon="-93.311554"><ele>289.6</ele><time>2026-07-16T02:02:06Z</time></rtept><rtept lat="36.054676" lon="-93.311297"><ele>291.0</ele><time>2026-07-16T02:02:06Z</time></rtept><rtept lat="36.054848" lon="-93.31104"><ele>289.8</ele><time>2026-07-16T02:02:06Z</time></rtept><rtept lat="36.05502" lon="-93.310783"><ele>291.0</ele><time>2026-07-16T02:02:06Z</time></rtept><rtept lat="36.055192" lon="-93.310525"><ele>288.9</ele><time>2026-07-16T02:02:06Z</time></rtept><rtept lat="36.055364" lon="-93.310268"><ele>284.5</ele><time>2026-07-16T02:02:06Z</time></rtept><rtept lat="36.055536" lon="-93.310011"><ele>282.0</ele><time>2026-07-16T02:02:06Z</time></rtept><rtept lat="36.055707" lon="-93.309754"><ele>281.2</ele><time>2026-07-16T02:02:06Z</time></rtept><rtept lat="36.055771" lon="-93.309659"><ele>281.4</ele><time>2026-07-16T02:02:06Z</time></rtept><rtept lat="36.055771" lon="-93.309659"><ele>281.4</ele><time>2026-07-16T02:02:06Z</time></rtept><rtept lat="36.056025" lon="-93.309547"><ele>282.5</ele><time>2026-07-16T02:02:06Z</time></rtept><rtept lat="36.056279" lon="-93.309435"><ele>285.7</ele><time>2026-07-16T02:02:06Z</time></rtept><rtept lat="36.056533" lon="-93.309323"><ele>283.3</ele><time>2026-07-16T02:02:06Z</time></rtept><rtept lat="36.056787" lon="-93.309211"><ele>281.8</ele><time>2026-07-16T02:02:06Z</time></rtept><rtept lat="36.057041" lon="-93.309099"><ele>281.5</ele><time>2026-07-16T02:02:06Z</time></rtept><rtept lat="36.057295" lon="-93.308987"><ele>282.8</ele><time>2026-07-16T02:02:06Z</time></rtept><rtept lat="36.057549" lon="-93.308875"><ele>284.1</ele><time>2026-07-16T02:02:06Z</time></rtept><rtept lat="36.057804" lon="-93.308763"><ele>284.5</ele><time>2026-07-16T02:02:06Z</time></rtept><rtept lat="36.058058" lon="-93.308651"><ele>284.4</ele><time>2026-07-16T02:02:06Z</time></rtept><rtept lat="36.058312" lon="-93.308539"><ele>284.0</ele><time>2026-07-16T02:02:06Z</time></rtept><rtept lat="36.058566" lon="-93.308427"><ele>283.3</ele><time>2026-07-16T02:02:06Z</time></rtept><rtept lat="36.05882" lon="-93.308315"><ele>282.0</ele><time>2026-07-16T02:02:06Z</time></rtept><rtept lat="36.059074" lon="-93.308203"><ele>282.2</ele><time>2026-07-16T02:02:06Z</time></rtept><rtept lat="36.059328" lon="-93.308091"><ele>283.0</ele><time>2026-07-16T02:02:06Z</time></rtept><rtept lat="36.059583" lon="-93.307978"><ele>282.2</ele><time>2026-07-16T02:02:06Z</time></rtept><rtept lat="36.059832" lon="-93.307869"><ele>281.0</ele><time>2026-07-16T02:02:06Z</time></rtept><rtept lat="36.059832" lon="-93.307869"><ele>281.0</ele><time>2026-07-16T02:02:06Z</time></rtept><rtept lat="36.060101" lon="-93.307877"><ele>280.8</ele><time>2026-07-16T02:02:06Z</time></rtept><rtept lat="36.060371" lon="-93.307885"><ele>286.8</ele><time>2026-07-16T02:02:06Z</time></rtept><rtept lat="36.060641" lon="-93.307893"><ele>286.2</ele><time>2026-07-16T02:02:06Z</time></rtept><rtept lat="36.06091" lon="-93.307902"><ele>285.7</ele><time>2026-07-16T02:02:06Z</time></rtept><rtept lat="36.06118" lon="-93.30791"><ele>285.2</ele><time>2026-07-16T02:02:06Z</time></rtept><rtept lat="36.06145" lon="-93.307918"><ele>286.1</ele><time>2026-07-16T02:02:06Z</time></rtept><rtept lat="36.06172" lon="-93.307926"><ele>286.3</ele><time>2026-07-16T02:02:06Z</time></rtept><rtept lat="36.061989" lon="-93.307935"><ele>285.9</ele><time>2026-07-16T02:02:06Z</time></rtept><rtept lat="36.062259" lon="-93.307943"><ele>285.1</ele><time>2026-07-16T02:02:06Z</time></rtept><rtept lat="36.062529" lon="-93.307951"><ele>282.4</ele><time>2026-07-16T02:02:06Z</time></rtept><rtept lat="36.062719" lon="-93.307957"><ele>280.6</ele><time>2026-07-16T02:02:06Z</time></rtept><rtept lat="36.062719" lon="-93.307957"><ele>280.6</ele><time>2026-07-16T02:02:06Z</time></rtept><rtept lat="36.062837" lon="-93.307656"><ele>283.2</ele><time>2026-07-16T02:02:06Z</time></rtept><rtept lat="36.062954" lon="-93.307356"><ele>285.9</ele><time>2026-07-16T02:02:06Z</time></rtept><rtept lat="36.063072" lon="-93.307056"><ele>286.5</ele><time>2026-07-16T02:02:06Z</time></rtept><rtept lat="36.063189" lon="-93.306755"><ele>286.0</ele><time>2026-07-16T02:02:06Z</time></rtept><rtept lat="36.063307" lon="-93.306455"><ele>284.7</ele><time>2026-07-16T02:02:06Z</time></rtept><rtept lat="36.063425" lon="-93.306154"><ele>282.1</ele><time>2026-07-16T02:02:06Z</time></rtept><rtept lat="36.063542" lon="-93.305854"><ele>279.6</ele><time>2026-07-16T02:02:06Z</time></rtept><rtept lat="36.063567" lon="-93.30579"><ele>279.2</ele><time>2026-07-16T02:02:06Z</time></rtept><rtept lat="36.063567" lon="-93.30579"><ele>279.2</ele><time>2026-07-16T02:02:06Z</time></rtept><rtept lat="36.063396" lon="-93.305532"><ele>279.6</ele><time>2026-07-16T02:02:06Z</time></rtept><rtept lat="36.063225" lon="-93.305274"><ele>277.1</ele><time>2026-07-16T02:02:06Z</time></rtept><rtept lat="36.063055" lon="-93.305015"><ele>277.6</ele><time>2026-07-16T02:02:06Z</time></rtept><rtept lat="36.062884" lon="-93.304757"><ele>277.6</ele><time>2026-07-16T02:02:06Z</time></rtept><rtept lat="36.062713" lon="-93.304499"><ele>278.2</ele><time>2026-07-16T02:02:06Z</time></rtept><rtept lat="36.062542" lon="-93.304241"><ele>279.0</ele><time>2026-07-16T02:02:06Z</time></rtept><rtept lat="36.062371" lon="-93.303982"><ele>279.5</ele><time>2026-07-16T02:02:06Z</time></rtept><rtept lat="36.0622" lon="-93.303724"><ele>280.4</ele><time>2026-07-16T02:02:06Z</time></rtept><rtept lat="36.062133" lon="-93.303623"><ele>280.0</ele><time>2026-07-16T02:02:06Z</time></rtept><rtept lat="36.062133" lon="-93.303623"><ele>280.0</ele><time>2026-07-16T02:02:06Z</time></rtept><rtept lat="36.061877" lon="-93.303519"><ele>278.5</ele><time>2026-07-16T02:02:06Z</time></rtept><rtept lat="36.061621" lon="-93.303414"><ele>278.1</ele><time>2026-07-16T02:02:06Z</time></rtept><rtept lat="36.061365" lon="-93.30331"><ele>278.7</ele><time>2026-07-16T02:02:06Z</time></rtept><rtept lat="36.061108" lon="-93.303205"><ele>279.2</ele><time>2026-07-16T02:02:06Z</time></rtept><rtept lat="36.060852" lon="-93.3031"><ele>277.7</ele><time>2026-07-16T02:02:06Z</time></rtept><rtept lat="36.060784" lon="-93.303073"><ele>277.2</ele><time>2026-07-16T02:02:06Z</time></rtept><rtept lat="36.060784" lon="-93.303073"><ele>277.2</ele><time>2026-07-16T02:02:06Z</time></rtept><rtept lat="36.060556" lon="-93.303251"><ele>278.1</ele><time>2026-07-16T02:02:06Z</time></rtept><rtept lat="36.060328" lon="-93.303429"><ele>278.2</ele><time>2026-07-16T02:02:06Z</time></rtept><rtept lat="36.0601" lon="-93.303607"><ele>277.0</ele><time>2026-07-16T02:02:06Z</time></rtept><rtept lat="36.059872" lon="-93.303786"><ele>280.2</ele><time>2026-07-16T02:02:06Z</time></rtept><rtept lat="36.059643" lon="-93.303964"><ele>279.9</ele><time>2026-07-16T02:02:06Z</time></rtept><rtept lat="36.059415" lon="-93.304142"><ele>283.8</ele><time>2026-07-16T02:02:06Z</time></rtept><rtept lat="36.059187" lon="-93.30432"><ele>288.5</ele><time>2026-07-16T02:02:06Z</time></rtept><rtept lat="36.058959" lon="-93.304499"><ele>289.8</ele><time>2026-07-16T02:02:06Z</time></rtept><rtept lat="36.058731" lon="-93.304677"><ele>290.4</ele><time>2026-07-16T02:02:06Z</time></rtept><rtept lat="36.058503" lon="-93.304855"><ele>291.1</ele><time>2026-07-16T02:02:06Z</time></rtept><rtept lat="36.058451" lon="-93.304896"><ele>291.5</ele><time>2026-07-16T02:02:06Z</time></rtept><rtept lat="36.058451" lon="-93.304896"><ele>291.5</ele><time>2026-07-16T02:02:06Z</time></rtept><rtept lat="36.058206" lon="-93.304757"><ele>283.6</ele><time>2026-07-16T02:02:06Z</time></rtept><rtept lat="36.05796" lon="-93.304619"><ele>277.5</ele><time>2026-07-16T02:02:06Z</time></rtept><rtept lat="36.057715" lon="-93.30448"><ele>277.2</ele><time>2026-07-16T02:02:06Z</time></rtept><rtept lat="36.057469" lon="-93.304342"><ele>278.5</ele><time>2026-07-16T02:02:06Z</time></rtept><rtept lat="36.057224" lon="-93.304203"><ele>278.8</ele><time>2026-07-16T02:02:06Z</time></rtept><rtept lat="36.056979" lon="-93.304065"><ele>277.9</ele><time>2026-07-16T02:02:06Z</time></rtept><rtept lat="36.056733" lon="-93.303926"><ele>278.1</ele><time>2026-07-16T02:02:06Z</time></rtept><rtept lat="36.056595" lon="-93.303848"><ele>278.3</ele><time>2026-07-16T02:02:06Z</time></rtept><rtept lat="36.056595" lon="-93.303848"><ele>278.3</ele><time>2026-07-16T02:02:06Z</time></rtept><rtept lat="36.056588" lon="-93.303514"><ele>277.5</ele><time>2026-07-16T02:02:06Z</time></rtept><rtept lat="36.056581" lon="-93.303181"><ele>278.1</ele><time>2026-07-16T02:02:06Z</time></rtept><rtept lat="36.056573" lon="-93.302847"><ele>279.2</ele><time>2026-07-16T02:02:06Z</time></rtept><rtept lat="36.056566" lon="-93.302514"><ele>281.4</ele><time>2026-07-16T02:02:06Z</time></rtept><rtept lat="36.056559" lon="-93.30218"><ele>282.3</ele><time>2026-07-16T02:02:06Z</time></rtept><rtept lat="36.056552" lon="-93.301846"><ele>281.5</ele><time>2026-07-16T02:02:06Z</time></rtept><rtept lat="36.056545" lon="-93.301513"><ele>279.4</ele><time>2026-07-16T02:02:06Z</time></rtept><rtept lat="36.056538" lon="-93.301179"><ele>276.4</ele><time>2026-07-16T02:02:06Z</time></rtept><rtept lat="36.056534" lon="-93.301"><ele>276.1</ele><time>2026-07-16T02:02:06Z</time></rtept><rtept lat="36.056534" lon="-93.301"><ele>276.1</ele><time>2026-07-16T02:02:06Z</time></rtept><rtept lat="36.056521" lon="-93.300667"><ele>276.0</ele><time>2026-07-16T02:02:06Z</time></rtept><rtept lat="36.056509" lon="-93.300333"><ele>276.2</ele><time>2026-07-16T02:02:06Z</time></rtept><rtept lat="36.056496" lon="-93.3"><ele>276.5</ele><time>2026-07-16T02:02:06Z</time></rtept><rtept lat="36.056484" lon="-93.299667"><ele>276.7</ele><time>2026-07-16T02:02:06Z</time></rtept><rtept lat="36.056471" lon="-93.299333"><ele>277.0</ele><time>2026-07-16T02:02:06Z</time></rtept><rtept lat="36.056459" lon="-93.299"><ele>277.2</ele><time>2026-07-16T02:02:06Z</time></rtept><rtept lat="36.056446" lon="-93.298666"><ele>277.2</ele><time>2026-07-16T02:02:06Z</time></rtept><rtept lat="36.056434" lon="-93.298333"><ele>276.7</ele><time>2026-07-16T02:02:06Z</time></rtept><rtept lat="36.05643" lon="-93.298231"><ele>276.4</ele><time>2026-07-16T02:02:06Z</time></rtept><rtept lat="36.05643" lon="-93.298231"><ele>276.4</ele><time>2026-07-16T02:02:06Z</time></rtept><rtept lat="36.056374" lon="-93.297904"><ele>276.5</ele><time>2026-07-16T02:02:06Z</time></rtept><rtept lat="36.056317" lon="-93.297578"><ele>276.8</ele><time>2026-07-16T02:02:06Z</time></rtept><rtept lat="36.056261" lon="-93.297252"><ele>276.2</ele><time>2026-07-16T02:02:06Z</time></rtept><rtept lat="36.056205" lon="-93.296925"><ele>276.6</ele><time>2026-07-16T02:02:06Z</time></rtept><rtept lat="36.056148" lon="-93.296599"><ele>276.9</ele><time>2026-07-16T02:02:06Z</time></rtept><rtept lat="36.056092" lon="-93.296273"><ele>276.3</ele><time>2026-07-16T02:02:06Z</time></rtept><rtept lat="36.056036" lon="-93.295946"><ele>276.0</ele><time>2026-07-16T02:02:06Z</time></rtept><rtept lat="36.055979" lon="-93.29562"><ele>276.8</ele><time>2026-07-16T02:02:06Z</time></rtept><rtept lat="36.055977" lon="-93.29561"><ele>276.8</ele><time>2026-07-16T02:02:06Z</time></rtept><rtept lat="36.055977" lon="-93.29561"><ele>276.8</ele><time>2026-07-16T02:02:06Z</time></rtept><rtept lat="36.055847" lon="-93.295318"><ele>276.4</ele><time>2026-07-16T02:02:06Z</time></rtept><rtept lat="36.055717" lon="-93.295025"><ele>275.2</ele><time>2026-07-16T02:02:06Z</time></rtept><rtept lat="36.055586" lon="-93.294733"><ele>276.9</ele><time>2026-07-16T02:02:06Z</time></rtept><rtept lat="36.055456" lon="-93.294441"><ele>275.1</ele><time>2026-07-16T02:02:06Z</time></rtept><rtept lat="36.055326" lon="-93.294149"><ele>276.0</ele><time>2026-07-16T02:02:06Z</time></rtept><rtept lat="36.055195" lon="-93.293857"><ele>275.4</ele><time>2026-07-16T02:02:06Z</time></rtept><rtept lat="36.055065" lon="-93.293565"><ele>275.4</ele><time>2026-07-16T02:02:06Z</time></rtept><rtept lat="36.055036" lon="-93.2935"><ele>275.8</ele><time>2026-07-16T02:02:06Z</time></rtept><rtept lat="36.055036" lon="-93.2935"><ele>275.8</ele><time>2026-07-16T02:02:06Z</time></rtept><rtept lat="36.054766" lon="-93.293495"><ele>275.5</ele><time>2026-07-16T02:02:06Z</time></rtept><rtept lat="36.054497" lon="-93.29349"><ele>276.4</ele><time>2026-07-16T02:02:06Z</time></rtept><rtept lat="36.054227" lon="-93.293484"><ele>276.3</ele><time>2026-07-16T02:02:06Z</time></rtept><rtept lat="36.053957" lon="-93.293479"><ele>275.9</ele><time>2026-07-16T02:02:06Z</time></rtept><rtept lat="36.053687" lon="-93.293473"><ele>276.0</ele><time>2026-07-16T02:02:06Z</time></rtept><rtept lat="36.053418" lon="-93.293468"><ele>276.1</ele><time>2026-07-16T02:02:06Z</time></rtept><rtept lat="36.053148" lon="-93.293463"><ele>276.0</ele><time>2026-07-16T02:02:06Z</time></rtept><rtept lat="36.052878" lon="-93.293457"><ele>275.7</ele><time>2026-07-16T02:02:06Z</time></rtept><rtept lat="36.052608" lon="-93.293452"><ele>276.2</ele><time>2026-07-16T02:02:06Z</time></rtept><rtept lat="36.052339" lon="-93.293447"><ele>275.1</ele><time>2026-07-16T02:02:06Z</time></rtept><rtept lat="36.052069" lon="-93.293441"><ele>274.0</ele><time>2026-07-16T02:02:06Z</time></rtept><rtept lat="36.051799" lon="-93.293436"><ele>274.6</ele><time>2026-07-16T02:02:06Z</time></rtept><rtept lat="36.051529" lon="-93.29343"><ele>275.0</ele><time>2026-07-16T02:02:06Z</time></rtept><rtept lat="36.05126" lon="-93.293425"><ele>275.9</ele><time>2026-07-16T02:02:06Z</time></rtept><rtept lat="36.051188" lon="-93.293424"><ele>276.2</ele><time>2026-07-16T02:02:06Z</time></rtept><rtept lat="36.051188" lon="-93.293424"><ele>276.2</ele><time>2026-07-16T02:02:06Z</time></rtept><rtept lat="36.05094" lon="-93.293293"><ele>275.5</ele><time>2026-07-16T02:02:06Z</time></rtept><rtept lat="36.050692" lon="-93.293162"><ele>277.1</ele><time>2026-07-16T02:02:06Z</time></rtept><rtept lat="36.050443" lon="-93.293032"><ele>276.5</ele><time>2026-07-16T02:02:06Z</time></rtept><rtept lat="36.050195" lon="-93.292901"><ele>277.1</ele><time>2026-07-16T02:02:06Z</time></rtept><rtept lat="36.049947" lon="-93.29277"><ele>277.4</ele><time>2026-07-16T02:02:06Z</time></rtept><rtept lat="36.049699" lon="-93.29264"><ele>277.1</ele><time>2026-07-16T02:02:06Z</time></rtept><rtept lat="36.04945" lon="-93.292509"><ele>277.0</ele><time>2026-07-16T02:02:06Z</time></rtept><rtept lat="36.049202" lon="-93.292379"><ele>277.4</ele><time>2026-07-16T02:02:06Z</time></rtept><rtept lat="36.048954" lon="-93.292248"><ele>276.3</ele><time>2026-07-16T02:02:06Z</time></rtept><rtept lat="36.04874" lon="-93.292136"><ele>278.9</ele><time>2026-07-16T02:02:06Z</time></rtept><rtept lat="36.04874" lon="-93.292136"><ele>278.9</ele><time>2026-07-16T02:02:06Z</time></rtept><rtept lat="36.048616" lon="-93.291839"><ele>276.3</ele><time>2026-07-16T02:02:06Z</time></rtept><rtept lat="36.048492" lon="-93.291543"><ele>274.1</ele><time>2026-07-16T02:02:06Z</time></rtept><rtept lat="36.048368" lon="-93.291247"><ele>275.8</ele><time>2026-07-16T02:02:06Z</time></rtept><rtept lat="36.048244" lon="-93.29095"><ele>274.6</ele><time>2026-07-16T02:02:06Z</time></rtept><rtept lat="36.048119" lon="-93.290654"><ele>275.3</ele><time>2026-07-16T02:02:06Z</time></rtept><rtept lat="36.047995" lon="-93.290358"><ele>274.8</ele><time>2026-07-16T02:02:06Z</time></rtept><rtept lat="36.047871" lon="-93.290061"><ele>274.6</ele><time>2026-07-16T02:02:06Z</time></rtept><rtept lat="36.047747" lon="-93.289765"><ele>274.3</ele><time>2026-07-16T02:02:06Z</time></rtept><rtept lat="36.047723" lon="-93.289708"><ele>274.1</ele><time>2026-07-16T02:02:06Z</time></rtept><rtept lat="36.047723" lon="-93.289708"><ele>274.1</ele><time>2026-07-16T02:02:06Z</time></rtept><rtept lat="36.04762" lon="-93.2894"><ele>274.3</ele><time>2026-07-16T02:02:06Z</time></rtept><rtept lat="36.047517" lon="-93.289092"><ele>275.4</ele><time>2026-07-16T02:02:06Z</time></rtept><rtept lat="36.047414" lon="-93.288783"><ele>275.3</ele><time>2026-07-16T02:02:06Z</time></rtept><rtept lat="36.04731" lon="-93.288475"><ele>276.0</ele><time>2026-07-16T02:02:06Z</time></rtept><rtept lat="36.047207" lon="-93.288167"><ele>275.7</ele><time>2026-07-16T02:02:06Z</time></rtept><rtept lat="36.047104" lon="-93.287858"><ele>275.3</ele><time>2026-07-16T02:02:06Z</time></rtept><rtept lat="36.047001" lon="-93.28755"><ele>274.1</ele><time>2026-07-16T02:02:06Z</time></rtept><rtept lat="36.046961" lon="-93.287433"><ele>274.8</ele><time>2026-07-16T02:02:06Z</time></rtept><rtept lat="36.046961" lon="-93.287433"><ele>274.8</ele><time>2026-07-16T02:02:06Z</time></rtept><rtept lat="36.047126" lon="-93.287168"><ele>274.2</ele><time>2026-07-16T02:02:06Z</time></rtept><rtept lat="36.04729" lon="-93.286904"><ele>274.7</ele><time>2026-07-16T02:02:06Z</time></rtept><rtept lat="36.047455" lon="-93.286639"><ele>275.0</ele><time>2026-07-16T02:02:06Z</time></rtept><rtept lat="36.047619" lon="-93.286375"><ele>275.7</ele><time>2026-07-16T02:02:06Z</time></rtept><rtept lat="36.047784" lon="-93.28611"><ele>274.6</ele><time>2026-07-16T02:02:06Z</time></rtept><rtept lat="36.047948" lon="-93.285846"><ele>273.1</ele><time>2026-07-16T02:02:06Z</time></rtept><rtept lat="36.048013" lon="-93.285742"><ele>273.5</ele><time>2026-07-16T02:02:06Z</time></rtept><rtept lat="36.048013" lon="-93.285742"><ele>273.5</ele><time>2026-07-16T02:02:06Z</time></rtept><rtept lat="36.048274" lon="-93.285825"><ele>273.0</ele><time>2026-07-16T02:02:06Z</time></rtept><rtept lat="36.048535" lon="-93.285909"><ele>273.2</ele><time>2026-07-16T02:02:06Z</time></rtept><rtept lat="36.048796" lon="-93.285992"><ele>273.0</ele><time>2026-07-16T02:02:06Z</time></rtept><rtept lat="36.049058" lon="-93.286076"><ele>272.4</ele><time>2026-07-16T02:02:06Z</time></rtept><rtept lat="36.049319" lon="-93.286159"><ele>273.3</ele><time>2026-07-16T02:02:06Z</time></rtept><rtept lat="36.04958" lon="-93.286243"><ele>272.5</ele><time>2026-07-16T02:02:06Z</time></rtept><rtept lat="36.049841" lon="-93.286326"><ele>272.4</ele><time>2026-07-16T02:02:06Z</time></rtept><rtept lat="36.050102" lon="-93.28641"><ele>272.0</ele><time>2026-07-16T02:02:06Z</time></rtept><rtept lat="36.050364" lon="-93.286493"><ele>272.5</ele><time>2026-07-16T02:02:06Z</time></rtept><rtept lat="36.050625" lon="-93.286577"><ele>272.6</ele><time>2026-07-16T02:02:06Z</time></rtept><rtept lat="36.050886" lon="-93.28666"><ele>273.0</ele><time>2026-07-16T02:02:06Z</time></rtept><rtept lat="36.051147" lon="-93.286744"><ele>274.5</ele><time>2026-07-16T02:02:06Z</time></rtept><rtept lat="36.051247" lon="-93.286775"><ele>275.0</ele><time>2026-07-16T02:02:06Z</time></rtept><rtept lat="36.051247" lon="-93.286775"><ele>275.0</ele><time>2026-07-16T02:02:06Z</time></rtept><rtept lat="36.051516" lon="-93.286764"><ele>275.4</ele><time>2026-07-16T02:02:06Z</time></rtept><rtept lat="36.051786" lon="-93.286753"><ele>274.3</ele><time>2026-07-16T02:02:06Z</time></rtept><rtept lat="36.052056" lon="-93.286742"><ele>273.2</ele><time>2026-07-16T02:02:06Z</time></rtept><rtept lat="36.052325" lon="-93.286731"><ele>272.7</ele><time>2026-07-16T02:02:06Z</time></rtept><rtept lat="36.052595" lon="-93.286721"><ele>271.9</ele><time>2026-07-16T02:02:06Z</time></rtept><rtept lat="36.052865" lon="-93.28671"><ele>272.7</ele><time>2026-07-16T02:02:06Z</time></rtept><rtept lat="36.053134" lon="-93.286699"><ele>273.1</ele><time>2026-07-16T02:02:06Z</time></rtept><rtept lat="36.053404" lon="-93.286688"><ele>273.8</ele><time>2026-07-16T02:02:06Z</time></rtept><rtept lat="36.053674" lon="-93.286677"><ele>274.0</ele><time>2026-07-16T02:02:06Z</time></rtept><rtept lat="36.053943" lon="-93.286666"><ele>275.4</ele><time>2026-07-16T02:02:06Z</time></rtept><rtept lat="36.054213" lon="-93.286655"><ele>273.4</ele><time>2026-07-16T02:02:06Z</time></rtept><rtept lat="36.054483" lon="-93.286644"><ele>272.6</ele><time>2026-07-16T02:02:06Z</time></rtept><rtept lat="36.054481" lon="-93.286644"><ele>272.6</ele><time>2026-07-16T02:02:06Z</time></rtept><rtept lat="36.054481" lon="-93.286644"><ele>272.6</ele><time>2026-07-16T02:02:06Z</time></rtept><rtept lat="36.054539" lon="-93.286318"><ele>271.5</ele><time>2026-07-16T02:02:06Z</time></rtept><rtept lat="36.054597" lon="-93.285992"><ele>272.1</ele><time>2026-07-16T02:02:06Z</time></rtept><rtept lat="36.054655" lon="-93.285666"><ele>273.6</ele><time>2026-07-16T02:02:06Z</time></rtept><rtept lat="36.054713" lon="-93.28534"><ele>273.5</ele><time>2026-07-16T02:02:06Z</time></rtept><rtept lat="36.054771" lon="-93.285014"><ele>273.7</ele><time>2026-07-16T02:02:06Z</time></rtept><rtept lat="36.05483" lon="-93.284688"><ele>274.3</ele><time>2026-07-16T02:02:06Z</time></rtept><rtept lat="36.054888" lon="-93.284363"><ele>272.4</ele><time>2026-07-16T02:02:06Z</time></rtept><rtept lat="36.054946" lon="-93.284037"><ele>271.4</ele><time>2026-07-16T02:02:06Z</time></rtept><rtept lat="36.055004" lon="-93.283711"><ele>270.7</ele><time>2026-07-16T02:02:06Z</time></rtept><rtept lat="36.055062" lon="-93.283385"><ele>270.9</ele><time>2026-07-16T02:02:06Z</time></rtept><rtept lat="36.055119" lon="-93.283065"><ele>270.5</ele><time>2026-07-16T02:02:06Z</time></rtept><rtept lat="36.055119" lon="-93.283065"><ele>270.5</ele><time>2026-07-16T02:02:06Z</time></rtept><rtept lat="36.055302" lon="-93.282819"><ele>273.1</ele><time>2026-07-16T02:02:06Z</time></rtept><rtept lat="36.055485" lon="-93.282574"><ele>273.0</ele><time>2026-07-16T02:02:06Z</time></rtept><rtept lat="36.055668" lon="-93.282328"><ele>272.2</ele><time>2026-07-16T02:02:06Z</time></rtept><rtept lat="36.055851" lon="-93.282083"><ele>273.0</ele><time>2026-07-16T02:02:06Z</time></rtept><rtept lat="36.056033" lon="-93.281838"><ele>272.9</ele><time>2026-07-16T02:02:06Z</time></rtept><rtept lat="36.056216" lon="-93.281592"><ele>273.0</ele><time>2026-07-16T02:02:06Z</time></rtept><rtept lat="36.056399" lon="-93.281347"><ele>272.5</ele><time>2026-07-16T02:02:06Z</time></rtept><rtept lat="36.056582" lon="-93.281102"><ele>271.4</ele><time>2026-07-16T02:02:06Z</time></rtept><rtept lat="36.056765" lon="-93.280856"><ele>269.6</ele><time>2026-07-16T02:02:06Z</time></rtept><rtept lat="36.056948" lon="-93.280611"><ele>271.7</ele><time>2026-07-16T02:02:06Z</time></rtept><rtept lat="36.057059" lon="-93.280462"><ele>271.4</ele><time>2026-07-16T02:02:06Z</time></rtept><rtept lat="36.057059" lon="-93.280462"><ele>271.4</ele><time>2026-07-16T02:02:06Z</time></rtept><rtept lat="36.057017" lon="-93.280132"><ele>269.5</ele><time>2026-07-16T02:02:06Z</time></rtept><rtept lat="36.056976" lon="-93.279802"><ele>270.5</ele><time>2026-07-16T02:02:06Z</time></rtept><rtept lat="36.056934" lon="-93.279473"><ele>271.2</ele><time>2026-07-16T02:02:06Z</time></rtept><rtept lat="36.056892" lon="-93.279143"><ele>272.1</ele><time>2026-07-16T02:02:06Z</time></rtept><rtept lat="36.056851" lon="-93.278813"><ele>272.3</ele><time>2026-07-16T02:02:06Z</time></rtept><rtept lat="36.056809" lon="-93.278483"><ele>272.0</ele><time>2026-07-16T02:02:06Z</time></rtept><rtept lat="36.056767" lon="-93.278154"><ele>272.4</ele><time>2026-07-16T02:02:06Z</time></rtept><rtept lat="36.056726" lon="-93.277824"><ele>272.9</ele><time>2026-07-16T02:02:06Z</time></rtept><rtept lat="36.056684" lon="-93.277494"><ele>273.3</ele><time>2026-07-16T02:02:06Z</time></rtept><rtept lat="36.056642" lon="-93.277165"><ele>273.6</ele><time>2026-07-16T02:02:06Z</time></rtept><rtept lat="36.056601" lon="-93.276835"><ele>272.9</ele><time>2026-07-16T02:02:06Z</time></rtept><rtept lat="36.056559" lon="-93.276505"><ele>271.4</ele><time>2026-07-16T02:02:06Z</time></rtept><rtept lat="36.056517" lon="-93.276175"><ele>271.1</ele><time>2026-07-16T02:02:06Z</time></rtept><rtept lat="36.056476" lon="-93.275846"><ele>271.0</ele><time>2026-07-16T02:02:06Z</time></rtept><rtept lat="36.056434" lon="-93.275516"><ele>269.5</ele><time>2026-07-16T02:02:06Z</time></rtept><rtept lat="36.056421" lon="-93.275411"><ele>271.6</ele><time>2026-07-16T02:02:06Z</time></rtept><rtept lat="36.056421" lon="-93.275411"><ele>271.6</ele><time>2026-07-16T02:02:06Z</time></rtept><rtept lat="36.056241" lon="-93.275163"><ele>268.0</ele><time>2026-07-16T02:02:06Z</time></rtept><rtept lat="36.056061" lon="-93.274914"><ele>270.1</ele><time>2026-07-16T02:02:06Z</time></rtept><rtept lat="36.055881" lon="-93.274666"><ele>269.7</ele><time>2026-07-16T02:02:06Z</time></rtept><rtept lat="36.0557" lon="-93.274417"><ele>270.2</ele><time>2026-07-16T02:02:06Z</time></rtept><rtept lat="36.05552" lon="-93.274169"><ele>270.4</ele><time>2026-07-16T02:02:06Z</time></rtept><rtept lat="36.05534" lon="-93.27392"><ele>270.3</ele><time>2026-07-16T02:02:06Z</time></rtept><rtept lat="36.05516" lon="-93.273672"><ele>271.2</ele><time>2026-07-16T02:02:06Z</time></rtept><rtept lat="36.05498" lon="-93.273423"><ele>270.2</ele><time>2026-07-16T02:02:06Z</time></rtept><rtept lat="36.0548" lon="-93.273175"><ele>270.0</ele><time>2026-07-16T02:02:06Z</time></rtept><rtept lat="36.05462" lon="-93.272926"><ele>269.3</ele><time>2026-07-16T02:02:06Z</time></rtept><rtept lat="36.05444" lon="-93.272678"><ele>270.8</ele><time>2026-07-16T02:02:06Z</time></rtept><rtept lat="36.05426" lon="-93.272429"><ele>269.9</ele><time>2026-07-16T02:02:06Z</time></rtept><rtept lat="36.05408" lon="-93.272181"><ele>269.9</ele><time>2026-07-16T02:02:06Z</time></rtept><rtept lat="36.053943" lon="-93.271992"><ele>272.4</ele><time>2026-07-16T02:02:06Z</time></rtept><rtept lat="36.053943" lon="-93.271992"><ele>272.4</ele><time>2026-07-16T02:02:06Z</time></rtept><rtept lat="36.053696" lon="-93.271858"><ele>268.4</ele><time>2026-07-16T02:02:06Z</time></rtept><rtept lat="36.053449" lon="-93.271723"><ele>266.8</ele><time>2026-07-16T02:02:06Z</time></rtept><rtept lat="36.053203" lon="-93.271588"><ele>268.1</ele><time>2026-07-16T02:02:06Z</time></rtept><rtept lat="36.052956" lon="-93.271453"><ele>268.0</ele><time>2026-07-16T02:02:06Z</time></rtept><rtept lat="36.052709" lon="-93.271319"><ele>268.1</ele><time>2026-07-16T02:02:06Z</time></rtept><rtept lat="36.052462" lon="-93.271184"><ele>267.6</ele><time>2026-07-16T02:02:06Z</time></rtept><rtept lat="36.052325" lon="-93.271109"><ele>267.0</ele><time>2026-07-16T02:02:06Z</time></rtept><rtept lat="36.052325" lon="-93.271109"><ele>267.0</ele><time>2026-07-16T02:02:06Z</time></rtept><rtept lat="36.052266" lon="-93.270783"><ele>267.7</ele><time>2026-07-16T02:02:06Z</time></rtept><rtept lat="36.052208" lon="-93.270457"><ele>268.4</ele><time>2026-07-16T02:02:06Z</time></rtept><rtept lat="36.05215" lon="-93.270131"><ele>269.0</ele><time>2026-07-16T02:02:06Z</time></rtept><rtept lat="36.052092" lon="-93.269806"><ele>269.0</ele><time>2026-07-16T02:02:06Z</time></rtept><rtept lat="36.052033" lon="-93.26948"><ele>269.0</ele><time>2026-07-16T02:02:06Z</time></rtept><rtept lat="36.051995" lon="-93.269267"><ele>267.3</ele><time>2026-07-16T02:02:06Z</time></rtept><rtept lat="36.051995" lon="-93.269267"><ele>267.3</ele><time>2026-07-16T02:02:06Z</time></rtept><rtept lat="36.052227" lon="-93.269096"><ele>267.1</ele><time>2026-07-16T02:02:06Z</time></rtept><rtept lat="36.052459" lon="-93.268925"><ele>267.8</ele><time>2026-07-16T02:02:06Z</time></rtept><rtept lat="36.052691" lon="-93.268755"><ele>267.5</ele><time>2026-07-16T02:02:06Z</time></rtept><rtept lat="36.052923" lon="-93.268584"><ele>267.8</ele><time>2026-07-16T02:02:06Z</time></rtept><rtept lat="36.053155" lon="-93.268414"><ele>267.8</ele><time>2026-07-16T02:02:06Z</time></rtept><rtept lat="36.053387" lon="-93.268243"><ele>266.3</ele><time>2026-07-16T02:02:06Z</time></rtept><rtept lat="36.053619" lon="-93.268073"><ele>265.1</ele><time>2026-07-16T02:02:06Z</time></rtept><rtept lat="36.053851" lon="-93.267902"><ele>283.1</ele><time>2026-07-16T02:02:06Z</time></rtept><rtept lat="36.054043" lon="-93.267761"><ele>293.7</ele><time>2026-07-16T02:02:06Z</time></rtept><rtept lat="36.054043" lon="-93.267761"><ele>293.7</ele><time>2026-07-16T02:02:06Z</time></rtept><rtept lat="36.054311" lon="-93.267801"><ele>290.4</ele><time>2026-07-16T02:02:06Z</time></rtept><rtept lat="36.054579" lon="-93.267842"><ele>271.6</ele><time>2026-07-16T02:02:06Z</time></rtept><rtept lat="36.054847" lon="-93.267883"><ele>270.5</ele><time>2026-07-16T02:02:06Z</time></rtept><rtept lat="36.055114" lon="-93.267924"><ele>269.9</ele><time>2026-07-16T02:02:06Z</time></rtept><rtept lat="36.055382" lon="-93.267964"><ele>269.1</ele><time>2026-07-16T02:02:06Z</time></rtept><rtept lat="36.05565" lon="-93.268005"><ele>268.2</ele><time>2026-07-16T02:02:06Z</time></rtept><rtept lat="36.055918" lon="-93.268046"><ele>268.1</ele><time>2026-07-16T02:02:06Z</time></rtept><rtept lat="36.056186" lon="-93.268087"><ele>267.0</ele><time>2026-07-16T02:02:06Z</time></rtept><rtept lat="36.056453" lon="-93.268127"><ele>267.0</ele><time>2026-07-16T02:02:06Z</time></rtept><rtept lat="36.056721" lon="-93.268168"><ele>266.4</ele><time>2026-07-16T02:02:06Z</time></rtept><rtept lat="36.056722" lon="-93.268168"><ele>266.4</ele><time>2026-07-16T02:02:06Z</time></rtept><rtept lat="36.056722" lon="-93.268168"><ele>266.4</ele><time>2026-07-16T02:02:06Z</time></rtept><rtept lat="36.056989" lon="-93.26821"><ele>266.2</ele><time>2026-07-16T02:02:06Z</time></rtept><rtept lat="36.057257" lon="-93.268252"><ele>268.4</ele><time>2026-07-16T02:02:06Z</time></rtept><rtept lat="36.057525" lon="-93.268293"><ele>268.2</ele><time>2026-07-16T02:02:06Z</time></rtept><rtept lat="36.057792" lon="-93.268335"><ele>268.2</ele><time>2026-07-16T02:02:06Z</time></rtept><rtept lat="36.05806" lon="-93.268377"><ele>270.9</ele><time>2026-07-16T02:02:06Z</time></rtept><rtept lat="36.058328" lon="-93.268419"><ele>271.8</ele><time>2026-07-16T02:02:06Z</time></rtept><rtept lat="36.058595" lon="-93.268461"><ele>271.0</ele><time>2026-07-16T02:02:06Z</time></rtept><rtept lat="36.058863" lon="-93.268502"><ele>270.0</ele><time>2026-07-16T02:02:06Z</time></rtept><rtept lat="36.059131" lon="-93.268544"><ele>269.5</ele><time>2026-07-16T02:02:06Z</time></rtept><rtept lat="36.059398" lon="-93.268586"><ele>269.5</ele><time>2026-07-16T02:02:06Z</time></rtept><rtept lat="36.059666" lon="-93.268628"><ele>269.4</ele><time>2026-07-16T02:02:06Z</time></rtept><rtept lat="36.059786" lon="-93.268646"><ele>268.6</ele><time>2026-07-16T02:02:06Z</time></rtept><rtept lat="36.059786" lon="-93.268646"><ele>268.6</ele><time>2026-07-16T02:02:06Z</time></rtept><rtept lat="36.060015" lon="-93.26847"><ele>269.5</ele><time>2026-07-16T02:02:06Z</time></rtept><rtept lat="36.060244" lon="-93.268294"><ele>269.8</ele><time>2026-07-16T02:02:06Z</time></rtept><rtept lat="36.060473" lon="-93.268117"><ele>269.5</ele><time>2026-07-16T02:02:06Z</time></rtept><rtept lat="36.060702" lon="-93.267941"><ele>269.3</ele><time>2026-07-16T02:02:06Z</time></rtept><rtept lat="36.060887" lon="-93.267798"><ele>266.5</ele><time>2026-07-16T02:02:06Z</time></rtept><rtept lat="36.060887" lon="-93.267798"><ele>266.5</ele><time>2026-07-16T02:02:06Z</time></rtept><rtept lat="36.06095" lon="-93.267474"><ele>267.2</ele><time>2026-07-16T02:02:06Z</time></rtept><rtept lat="36.061013" lon="-93.267149"><ele>266.1</ele><time>2026-07-16T02:02:06Z</time></rtept><rtept lat="36.061076" lon="-93.266825"><ele>266.4</ele><time>2026-07-16T02:02:06Z</time></rtept><rtept lat="36.061139" lon="-93.2665"><ele>265.6</ele><time>2026-07-16T02:02:06Z</time></rtept><rtept lat="36.061203" lon="-93.266176"><ele>264.2</ele><time>2026-07-16T02:02:06Z</time></rtept><rtept lat="36.061245" lon="-93.265956"><ele>264.0</ele><time>2026-07-16T02:02:06Z</time></rtept><rtept lat="36.061245" lon="-93.265956"><ele>264.0</ele><time>2026-07-16T02:02:06Z</time></rtept><rtept lat="36.061111" lon="-93.265666"><ele>264.0</ele><time>2026-07-16T02:02:06Z</time></rtept><rtept lat="36.060977" lon="-93.265377"><ele>264.0</ele><time>2026-07-16T02:02:06Z</time></rtept><rtept lat="36.060842" lon="-93.265088"><ele>265.4</ele><time>2026-07-16T02:02:06Z</time></rtept><rtept lat="36.060708" lon="-93.264798"><ele>265.9</ele><time>2026-07-16T02:02:06Z</time></rtept><rtept lat="36.060574" lon="-93.264509"><ele>265.7</ele><time>2026-07-16T02:02:06Z</time></rtept><rtept lat="36.060439" lon="-93.264219"><ele>266.8</ele><time>2026-07-16T02:02:06Z</time></rtept><rtept lat="36.060305" lon="-93.26393"><ele>268.3</ele><time>2026-07-16T02:02:06Z</time></rtept><rtept lat="36.060171" lon="-93.26364"><ele>267.7</ele><time>2026-07-16T02:02:06Z</time></rtept><rtept lat="36.060037" lon="-93.263351"><ele>268.0</ele><time>2026-07-16T02:02:06Z</time></rtept><rtept lat="36.059902" lon="-93.263061"><ele>263.2</ele><time>2026-07-16T02:02:06Z</time></rtept><rtept lat="36.059768" lon="-93.262772"><ele>264.3</ele><time>2026-07-16T02:02:06Z</time></rtept><rtept lat="36.059634" lon="-93.262482"><ele>263.6</ele><time>2026-07-16T02:02:06Z</time></rtept><rtept lat="36.059499" lon="-93.262193"><ele>265.9</ele><time>2026-07-16T02:02:06Z</time></rtept><rtept lat="36.059365" lon="-93.261904"><ele>267.0</ele><time>2026-07-16T02:02:06Z</time></rtept><rtept lat="36.059231" lon="-93.261614"><ele>266.1</ele><time>2026-07-16T02:02:06Z</time></rtept><rtept lat="36.059096" lon="-93.261325"><ele>266.9</ele><time>2026-07-16T02:02:06Z</time></rtept><rtept lat="36.058962" lon="-93.261035"><ele>266.0</ele><time>2026-07-16T02:02:06Z</time></rtept><rtept lat="36.058828" lon="-93.260746"><ele>266.0</ele><time>2026-07-16T02:02:06Z</time></rtept><rtept lat="36.058693" lon="-93.260456"><ele>265.4</ele><time>2026-07-16T02:02:06Z</time></rtept><rtept lat="36.058559" lon="-93.260167"><ele>263.9</ele><time>2026-07-16T02:02:06Z</time></rtept><rtept lat="36.058425" lon="-93.259877"><ele>263.4</ele><time>2026-07-16T02:02:06Z</time></rtept><rtept lat="36.058291" lon="-93.259588"><ele>263.8</ele><time>2026-07-16T02:02:06Z</time></rtept><rtept lat="36.058156" lon="-93.259299"><ele>263.5</ele><time>2026-07-16T02:02:06Z</time></rtept><rtept lat="36.058022" lon="-93.259009"><ele>263.5</ele><time>2026-07-16T02:02:06Z</time></rtept><rtept lat="36.057888" lon="-93.25872"><ele>263.5</ele><time>2026-07-16T02:02:06Z</time></rtept><rtept lat="36.05788" lon="-93.258702"><ele>263.6</ele><time>2026-07-16T02:02:06Z</time></rtept><rtept lat="36.05788" lon="-93.258702"><ele>263.6</ele><time>2026-07-16T02:02:06Z</time></rtept><rtept lat="36.058002" lon="-93.258405"><ele>264.0</ele><time>2026-07-16T02:02:06Z</time></rtept><rtept lat="36.058124" lon="-93.258107"><ele>263.5</ele><time>2026-07-16T02:02:06Z</time></rtept><rtept lat="36.058246" lon="-93.25781"><ele>263.7</ele><time>2026-07-16T02:02:06Z</time></rtept><rtept lat="36.058368" lon="-93.257512"><ele>262.8</ele><time>2026-07-16T02:02:06Z</time></rtept><rtept lat="36.05849" lon="-93.257215"><ele>263.9</ele><time>2026-07-16T02:02:06Z</time></rtept><rtept lat="36.058613" lon="-93.256917"><ele>264.0</ele><time>2026-07-16T02:02:06Z</time></rtept><rtept lat="36.058735" lon="-93.256619"><ele>264.0</ele><time>2026-07-16T02:02:06Z</time></rtept><rtept lat="36.058857" lon="-93.256322"><ele>264.3</ele><time>2026-07-16T02:02:06Z</time></rtept><rtept lat="36.058979" lon="-93.256024"><ele>262.5</ele><time>2026-07-16T02:02:06Z</time></rtept><rtept lat="36.059101" lon="-93.255727"><ele>264.1</ele><time>2026-07-16T02:02:06Z</time></rtept><rtept lat="36.059223" lon="-93.255429"><ele>265.2</ele><time>2026-07-16T02:02:06Z</time></rtept><rtept lat="36.059345" lon="-93.255132"><ele>265.7</ele><time>2026-07-16T02:02:06Z</time></rtept><rtept lat="36.059468" lon="-93.254834"><ele>264.9</ele><time>2026-07-16T02:02:06Z</time></rtept><rtept lat="36.05959" lon="-93.254536"><ele>266.0</ele><time>2026-07-16T02:02:06Z</time></rtept><rtept lat="36.059612" lon="-93.254481"><ele>265.9</ele><time>2026-07-16T02:02:06Z</time></rtept><rtept lat="36.059612" lon="-93.254481"><ele>265.9</ele><time>2026-07-16T02:02:06Z</time></rtept><rtept lat="36.059826" lon="-93.254277"><ele>265.5</ele><time>2026-07-16T02:02:06Z</time></rtept><rtept lat="36.060039" lon="-93.254073"><ele>264.9</ele><time>2026-07-16T02:02:06Z</time></rtept><rtept lat="36.060253" lon="-93.253869"><ele>264.3</ele><time>2026-07-16T02:02:06Z</time></rtept><rtept lat="36.060466" lon="-93.253664"><ele>263.9</ele><time>2026-07-16T02:02:06Z</time></rtept><rtept lat="36.060679" lon="-93.25346"><ele>264.3</ele><time>2026-07-16T02:02:06Z</time></rtept><rtept lat="36.060893" lon="-93.253256"><ele>263.8</ele><time>2026-07-16T02:02:06Z</time></rtept><rtept lat="36.061106" lon="-93.253052"><ele>263.4</ele><time>2026-07-16T02:02:06Z</time></rtept><rtept lat="36.061319" lon="-93.252847"><ele>263.4</ele><time>2026-07-16T02:02:06Z</time></rtept><rtept lat="36.061533" lon="-93.252643"><ele>264.6</ele><time>2026-07-16T02:02:06Z</time></rtept><rtept lat="36.061746" lon="-93.252439"><ele>265.1</ele><time>2026-07-16T02:02:06Z</time></rtept><rtept lat="36.06196" lon="-93.252235"><ele>264.6</ele><time>2026-07-16T02:02:06Z</time></rtept><rtept lat="36.062173" lon="-93.25203"><ele>264.7</ele><time>2026-07-16T02:02:06Z</time></rtept><rtept lat="36.062386" lon="-93.251826"><ele>264.1</ele><time>2026-07-16T02:02:06Z</time></rtept><rtept lat="36.0626" lon="-93.251622"><ele>261.2</ele><time>2026-07-16T02:02:06Z</time></rtept><rtept lat="36.062813" lon="-93.251418"><ele>261.6</ele><time>2026-07-16T02:02:06Z</time></rtept><rtept lat="36.062937" lon="-93.251299"><ele>261.7</ele><time>2026-07-16T02:02:06Z</time></rtept><rtept lat="36.062937" lon="-93.251299"><ele>261.7</ele><time>2026-07-16T02:02:06Z</time></rtept><rtept lat="36.063194" lon="-93.251197"><ele>261.3</ele><time>2026-07-16T02:02:06Z</time></rtept><rtept lat="36.06345" lon="-93.251094"><ele>262.0</ele><time>2026-07-16T02:02:06Z</time></rtept><rtept lat="36.063707" lon="-93.250991"><ele>262.4</ele><time>2026-07-16T02:02:06Z</time></rtept><rtept lat="36.063964" lon="-93.250889"><ele>262.5</ele><time>2026-07-16T02:02:06Z</time></rtept><rtept lat="36.06422" lon="-93.250786"><ele>262.8</ele><time>2026-07-16T02:02:06Z</time></rtept><rtept lat="36.064477" lon="-93.250683"><ele>262.7</ele><time>2026-07-16T02:02:06Z</time></rtept><rtept lat="36.064637" lon="-93.250619"><ele>262.3</ele><time>2026-07-16T02:02:06Z</time></rtept><rtept lat="36.064637" lon="-93.250619"><ele>262.3</ele><time>2026-07-16T02:02:06Z</time></rtept><rtept lat="36.064681" lon="-93.25029"><ele>263.2</ele><time>2026-07-16T02:02:06Z</time></rtept><rtept lat="36.064724" lon="-93.24996"><ele>264.6</ele><time>2026-07-16T02:02:06Z</time></rtept><rtept lat="36.064768" lon="-93.249631"><ele>264.9</ele><time>2026-07-16T02:02:06Z</time></rtept><rtept lat="36.064811" lon="-93.249302"><ele>264.8</ele><time>2026-07-16T02:02:06Z</time></rtept><rtept lat="36.064854" lon="-93.248972"><ele>265.0</ele><time>2026-07-16T02:02:06Z</time></rtept><rtept lat="36.064898" lon="-93.248643"><ele>265.0</ele><time>2026-07-16T02:02:06Z</time></rtept><rtept lat="36.064941" lon="-93.248313"><ele>264.0</ele><time>2026-07-16T02:02:06Z</time></rtept><rtept lat="36.064984" lon="-93.247984"><ele>262.9</ele><time>2026-07-16T02:02:06Z</time></rtept><rtept lat="36.065022" lon="-93.247697"><ele>261.9</ele><time>2026-07-16T02:02:06Z</time></rtept><rtept lat="36.065022" lon="-93.247697"><ele>261.9</ele><time>2026-07-16T02:02:06Z</time></rtept><rtept lat="36.065056" lon="-93.247366"><ele>261.4</ele><time>2026-07-16T02:02:06Z</time></rtept><rtept lat="36.065089" lon="-93.247035"><ele>261.1</ele><time>2026-07-16T02:02:06Z</time></rtept><rtept lat="36.065123" lon="-93.246704"><ele>260.3</ele><time>2026-07-16T02:02:06Z</time></rtept><rtept lat="36.065157" lon="-93.246372"><ele>260.1</ele><time>2026-07-16T02:02:06Z</time></rtept><rtept lat="36.06519" lon="-93.246041"><ele>260.3</ele><time>2026-07-16T02:02:06Z</time></rtept><rtept lat="36.065224" lon="-93.24571"><ele>261.2</ele><time>2026-07-16T02:02:06Z</time></rtept><rtept lat="36.065257" lon="-93.245379"><ele>261.5</ele><time>2026-07-16T02:02:06Z</time></rtept><rtept lat="36.065291" lon="-93.245048"><ele>262.5</ele><time>2026-07-16T02:02:06Z</time></rtept><rtept lat="36.065324" lon="-93.244716"><ele>262.7</ele><time>2026-07-16T02:02:06Z</time></rtept><rtept lat="36.065358" lon="-93.244385"><ele>262.4</ele><time>2026-07-16T02:02:06Z</time></rtept><rtept lat="36.065391" lon="-93.244054"><ele>262.8</ele><time>2026-07-16T02:02:06Z</time></rtept><rtept lat="36.065425" lon="-93.243723"><ele>261.5</ele><time>2026-07-16T02:02:06Z</time></rtept><rtept lat="36.065458" lon="-93.243392"><ele>260.8</ele><time>2026-07-16T02:02:06Z</time></rtept><rtept lat="36.065492" lon="-93.243061"><ele>262.0</ele><time>2026-07-16T02:02:06Z</time></rtept><rtept lat="36.065526" lon="-93.242729"><ele>262.8</ele><time>2026-07-16T02:02:06Z</time></rtept><rtept lat="36.065559" lon="-93.242398"><ele>263.1</ele><time>2026-07-16T02:02:06Z</time></rtept><rtept lat="36.065593" lon="-93.242067"><ele>263.4</ele><time>2026-07-16T02:02:06Z</time></rtept><rtept lat="36.065626" lon="-93.241736"><ele>263.0</ele><time>2026-07-16T02:02:06Z</time></rtept><rtept lat="36.065645" lon="-93.241553"><ele>262.4</ele><time>2026-07-16T02:02:06Z</time></rtept><rtept lat="36.065645" lon="-93.241553"><ele>262.4</ele><time>2026-07-16T02:02:06Z</time></rtept><rtept lat="36.06575" lon="-93.241245"><ele>263.2</ele><time>2026-07-16T02:02:06Z</time></rtept><rtept lat="36.065855" lon="-93.240938"><ele>264.6</ele><time>2026-07-16T02:02:06Z</time></rtept><rtept lat="36.06596" lon="-93.240631"><ele>266.0</ele><time>2026-07-16T02:02:06Z</time></rtept><rtept lat="36.066066" lon="-93.240323"><ele>266.0</ele><time>2026-07-16T02:02:06Z</time></rtept><rtept lat="36.066171" lon="-93.240016"><ele>265.7</ele><time>2026-07-16T02:02:06Z</time></rtept><rtept lat="36.066276" lon="-93.239709"><ele>267.2</ele><time>2026-07-16T02:02:06Z</time></rtept><rtept lat="36.066381" lon="-93.239401"><ele>266.4</ele><time>2026-07-16T02:02:06Z</time></rtept><rtept lat="36.066487" lon="-93.239094"><ele>265.5</ele><time>2026-07-16T02:02:06Z</time></rtept><rtept lat="36.066592" lon="-93.238787"><ele>263.6</ele><time>2026-07-16T02:02:06Z</time></rtept><rtept lat="36.066697" lon="-93.238479"><ele>262.8</ele><time>2026-07-16T02:02:06Z</time></rtept><rtept lat="36.066802" lon="-93.238172"><ele>260.3</ele><time>2026-07-16T02:02:06Z</time></rtept><rtept lat="36.066907" lon="-93.237864"><ele>259.6</ele><time>2026-07-16T02:02:06Z</time></rtept><rtept lat="36.067013" lon="-93.237557"><ele>259.6</ele><time>2026-07-16T02:02:06Z</time></rtept><rtept lat="36.067118" lon="-93.23725"><ele>259.3</ele><time>2026-07-16T02:02:06Z</time></rtept><rtept lat="36.067143" lon="-93.237178"><ele>260.0</ele><time>2026-07-16T02:02:06Z</time></rtept><rtept lat="36.067143" lon="-93.237178"><ele>260.0</ele><time>2026-07-16T02:02:06Z</time></rtept><rtept lat="36.067375" lon="-93.237009"><ele>259.5</ele><time>2026-07-16T02:02:06Z</time></rtept><rtept lat="36.067608" lon="-93.236841"><ele>259.6</ele><time>2026-07-16T02:02:06Z</time></rtept><rtept lat="36.067841" lon="-93.236672"><ele>260.4</ele><time>2026-07-16T02:02:06Z</time></rtept><rtept lat="36.068074" lon="-93.236503"><ele>260.0</ele><time>2026-07-16T02:02:06Z</time></rtept><rtept lat="36.068307" lon="-93.236335"><ele>260.0</ele><time>2026-07-16T02:02:06Z</time></rtept><rtept lat="36.06854" lon="-93.236166"><ele>259.3</ele><time>2026-07-16T02:02:06Z</time></rtept><rtept lat="36.068773" lon="-93.235998"><ele>260.0</ele><time>2026-07-16T02:02:06Z</time></rtept><rtept lat="36.069005" lon="-93.235829"><ele>259.1</ele><time>2026-07-16T02:02:06Z</time></rtept><rtept lat="36.069238" lon="-93.235661"><ele>260.1</ele><time>2026-07-16T02:02:06Z</time></rtept><rtept lat="36.069471" lon="-93.235492"><ele>260.4</ele><time>2026-07-16T02:02:06Z</time></rtept><rtept lat="36.069704" lon="-93.235324"><ele>259.6</ele><time>2026-07-16T02:02:06Z</time></rtept><rtept lat="36.069917" lon="-93.23517"><ele>258.6</ele><time>2026-07-16T02:02:06Z</time></rtept><rtept lat="36.069917" lon="-93.23517"><ele>258.6</ele><time>2026-07-16T02:02:06Z</time></rtept><rtept lat="36.070183" lon="-93.235219"><ele>258.7</ele><time>2026-07-16T02:02:06Z</time></rtept><rtept lat="36.07045" lon="-93.235268"><ele>258.0</ele><time>2026-07-16T02:02:06Z</time></rtept><rtept lat="36.070717" lon="-93.235317"><ele>258.3</ele><time>2026-07-16T02:02:06Z</time></rtept><rtept lat="36.070984" lon="-93.235366"><ele>259.4</ele><time>2026-07-16T02:02:06Z</time></rtept><rtept lat="36.071251" lon="-93.235415"><ele>260.0</ele><time>2026-07-16T02:02:06Z</time></rtept><rtept lat="36.071518" lon="-93.235465"><ele>260.3</ele><time>2026-07-16T02:02:06Z</time></rtept><rtept lat="36.071785" lon="-93.235514"><ele>260.9</ele><time>2026-07-16T02:02:06Z</time></rtept><rtept lat="36.072051" lon="-93.235563"><ele>261.0</ele><time>2026-07-16T02:02:06Z</time></rtept><rtept lat="36.072318" lon="-93.235612"><ele>260.5</ele><time>2026-07-16T02:02:06Z</time></rtept><rtept lat="36.072567" lon="-93.235658"><ele>260.6</ele><time>2026-07-16T02:02:06Z</time></rtept><rtept lat="36.072628" lon="-93.236256"><ele>261.1</ele><time>2026-07-16T02:02:06Z</time></rtept><rtept lat="36.073245" lon="-93.23616"><ele>258.9</ele><time>2026-07-16T02:02:06Z</time></rtept><rtept lat="36.073201" lon="-93.235721"><ele>259.2</ele><time>2026-07-16T02:02:06Z</time></rtept><rtept lat="36.073385" lon="-93.235477"><ele>260.0</ele><time>2026-07-16T02:02:06Z</time></rtept><rtept lat="36.07357" lon="-93.235234"><ele>258.5</ele><time>2026-07-16T02:02:06Z</time></rtept><rtept lat="36.07358" lon="-93.235219"><ele>258.6</ele><time>2026-07-16T02:02:06Z</time></rtept><rtept lat="36.07358" lon="-93.235219"><ele>258.6</ele><time>2026-07-16T02:02:06Z</time></rtept><rtept lat="36.073849" lon="-93.235186"><ele>259.6</ele><time>2026-07-16T02:02:06Z</time></rtept><rtept lat="36.074117" lon="-93.235153"><ele>259.8</ele><time>2026-07-16T02:02:06Z</time></rtept><rtept lat="36.074386" lon="-93.235119"><ele>259.6</ele><time>2026-07-16T02:02:06Z</time></rtept><rtept lat="36.074654" lon="-93.235086"><ele>259.6</ele><time>2026-07-16T02:02:06Z</time></rtept><rtept lat="36.074923" lon="-93.235052"><ele>259.4</ele><time>2026-07-16T02:02:06Z</time></rtept><rtept lat="36.075191" lon="-93.235019"><ele>258.7</ele><time>2026-07-16T02:02:06Z</time></rtept><rtept lat="36.07546" lon="-93.234986"><ele>257.9</ele><time>2026-07-16T02:02:06Z</time></rtept><rtept lat="36.075728" lon="-93.234952"><ele>259.2</ele><time>2026-07-16T02:02:06Z</time></rtept><rtept lat="36.075759" lon="-93.234948"><ele>260.9</ele><time>2026-07-16T02:02:06Z</time></rtept><rtept lat="36.075759" lon="-93.234948"><ele>260.9</ele><time>2026-07-16T02:02:06Z</time></rtept><rtept lat="36.075761" lon="-93.234615"><ele>257.8</ele><time>2026-07-16T02:02:06Z</time></rtept><rtept lat="36.075764" lon="-93.234281"><ele>259.1</ele><time>2026-07-16T02:02:06Z</time></rtept><rtept lat="36.075767" lon="-93.233947"><ele>259.6</ele><time>2026-07-16T02:02:06Z</time></rtept><rtept lat="36.07577" lon="-93.233613"><ele>260.2</ele><time>2026-07-16T02:02:06Z</time></rtept><rtept lat="36.075773" lon="-93.233279"><ele>258.4</ele><time>2026-07-16T02:02:06Z</time></rtept><rtept lat="36.075776" lon="-93.232946"><ele>258.1</ele><time>2026-07-16T02:02:06Z</time></rtept><rtept lat="36.075779" lon="-93.232612"><ele>257.7</ele><time>2026-07-16T02:02:06Z</time></rtept><rtept lat="36.075782" lon="-93.232278"><ele>258.2</ele><time>2026-07-16T02:02:06Z</time></rtept><rtept lat="36.075785" lon="-93.231944"><ele>258.7</ele><time>2026-07-16T02:02:06Z</time></rtept><rtept lat="36.075788" lon="-93.231611"><ele>258.3</ele><time>2026-07-16T02:02:06Z</time></rtept><rtept lat="36.075791" lon="-93.231277"><ele>259.4</ele><time>2026-07-16T02:02:06Z</time></rtept><rtept lat="36.075793" lon="-93.230943"><ele>261.2</ele><time>2026-07-16T02:02:06Z</time></rtept><rtept lat="36.075796" lon="-93.230609"><ele>261.9</ele><time>2026-07-16T02:02:06Z</time></rtept><rtept lat="36.075796" lon="-93.230593"><ele>261.9</ele><time>2026-07-16T02:02:06Z</time></rtept><rtept lat="36.075796" lon="-93.230593"><ele>261.9</ele><time>2026-07-16T02:02:06Z</time></rtept><rtept lat="36.07564" lon="-93.230321"><ele>261.8</ele><time>2026-07-16T02:02:06Z</time></rtept><rtept lat="36.075483" lon="-93.23005"><ele>261.2</ele><time>2026-07-16T02:02:06Z</time></rtept><rtept lat="36.075326" lon="-93.229778"><ele>261.0</ele><time>2026-07-16T02:02:06Z</time></rtept><rtept lat="36.075169" lon="-93.229507"><ele>261.1</ele><time>2026-07-16T02:02:06Z</time></rtept><rtept lat="36.075012" lon="-93.229236"><ele>261.0</ele><time>2026-07-16T02:02:06Z</time></rtept><rtept lat="36.074855" lon="-93.228964"><ele>261.0</ele><time>2026-07-16T02:02:06Z</time></rtept><rtept lat="36.074698" lon="-93.228693"><ele>261.0</ele><time>2026-07-16T02:02:06Z</time></rtept><rtept lat="36.074541" lon="-93.228421"><ele>260.8</ele><time>2026-07-16T02:02:06Z</time></rtept><rtept lat="36.074384" lon="-93.22815"><ele>259.6</ele><time>2026-07-16T02:02:06Z</time></rtept><rtept lat="36.074227" lon="-93.227878"><ele>258.9</ele><time>2026-07-16T02:02:06Z</time></rtept><rtept lat="36.074195" lon="-93.227823"><ele>258.7</ele><time>2026-07-16T02:02:06Z</time></rtept><rtept lat="36.074195" lon="-93.227823"><ele>258.7</ele><time>2026-07-16T02:02:06Z</time></rtept><rtept lat="36.074234" lon="-93.227493"><ele>258.7</ele><time>2026-07-16T02:02:06Z</time></rtept><rtept lat="36.074273" lon="-93.227162"><ele>256.4</ele><time>2026-07-16T02:02:06Z</time></rtept><rtept lat="36.074312" lon="-93.226832"><ele>257.0</ele><time>2026-07-16T02:02:06Z</time></rtept><rtept lat="36.074351" lon="-93.226502"><ele>264.9</ele><time>2026-07-16T02:02:06Z</time></rtept><rtept lat="36.07439" lon="-93.226171"><ele>277.7</ele><time>2026-07-16T02:02:06Z</time></rtept><rtept lat="36.074429" lon="-93.225841"><ele>281.9</ele><time>2026-07-16T02:02:06Z</time></rtept><rtept lat="36.074468" lon="-93.225511"><ele>282.3</ele><time>2026-07-16T02:02:06Z</time></rtept><rtept lat="36.074507" lon="-93.225181"><ele>280.6</ele><time>2026-07-16T02:02:06Z</time></rtept><rtept lat="36.074546" lon="-93.22485"><ele>278.9</ele><time>2026-07-16T02:02:06Z</time></rtept><rtept lat="36.074585" lon="-93.22452"><ele>275.8</ele><time>2026-07-16T02:02:06Z</time></rtept><rtept lat="36.074624" lon="-93.22419"><ele>270.0</ele><time>2026-07-16T02:02:06Z</time></rtept><rtept lat="36.074663" lon="-93.223859"><ele>264.5</ele><time>2026-07-16T02:02:06Z</time></rtept><rtept lat="36.074702" lon="-93.223529"><ele>260.0</ele><time>2026-07-16T02:02:06Z</time></rtept><rtept lat="36.074741" lon="-93.223199"><ele>260.0</ele><time>2026-07-16T02:02:06Z</time></rtept><rtept lat="36.074781" lon="-93.222869"><ele>259.5</ele><time>2026-07-16T02:02:06Z</time></rtept><rtept lat="36.07482" lon="-93.222538"><ele>258.0</ele><time>2026-07-16T02:02:06Z</time></rtept><rtept lat="36.074859" lon="-93.222208"><ele>257.0</ele><time>2026-07-16T02:02:06Z</time></rtept><rtept lat="36.074898" lon="-93.221878"><ele>256.5</ele><time>2026-07-16T02:02:06Z</time></rtept><rtept lat="36.074937" lon="-93.221547"><ele>255.6</ele><time>2026-07-16T02:02:06Z</time></rtept><rtept lat="36.074976" lon="-93.221217"><ele>256.4</ele><time>2026-07-16T02:02:06Z</time></rtept><rtept lat="36.075015" lon="-93.220887"><ele>256.4</ele><time>2026-07-16T02:02:06Z</time></rtept><rtept lat="36.075054" lon="-93.220557"><ele>256.0</ele><time>2026-07-16T02:02:06Z</time></rtept><rtept lat="36.075093" lon="-93.220226"><ele>256.2</ele><time>2026-07-16T02:02:06Z</time></rtept><rtept lat="36.075132" lon="-93.219896"><ele>256.4</ele><time>2026-07-16T02:02:06Z</time></rtept><rtept lat="36.075171" lon="-93.219566"><ele>257.3</ele><time>2026-07-16T02:02:06Z</time></rtept><rtept lat="36.07521" lon="-93.219235"><ele>256.9</ele><time>2026-07-16T02:02:06Z</time></rtept><rtept lat="36.07522" lon="-93.219147"><ele>256.8</ele><time>2026-07-16T02:02:06Z</time></rtept><rtept lat="36.07752" lon="-93.21976"><ele>288.4</ele><time>2026-07-16T02:02:06Z</time></rtept><rtept lat="36.077575" lon="-93.219599"><ele>290.4</ele><time>2026-07-16T02:02:06Z</time></rtept><rtept lat="36.077923" lon="-93.21907"><ele>297.1</ele><time>2026-07-16T02:02:06Z</time></rtept><rtept lat="36.078245" lon="-93.218858"><ele>301.3</ele><time>2026-07-16T02:02:06Z</time></rtept><rtept lat="36.078597" lon="-93.2184"><ele>305.3</ele><time>2026-07-16T02:02:06Z</time></rtept><rtept lat="36.079022" lon="-93.217621"><ele>314.0</ele><time>2026-07-16T02:02:06Z</time></rtept><rtept lat="36.079279" lon="-93.217291"><ele>319.1</ele><time>2026-07-16T02:02:06Z</time></rtept><rtept lat="36.079538" lon="-93.216863"><ele>323.6</ele><time>2026-07-16T02:02:06Z</time></rtept><rtept lat="36.079758" lon="-93.216379"><ele>325.1</ele><time>2026-07-16T02:02:06Z</time></rtept><rtept lat="36.079853" lon="-93.215941"><ele>327.5</ele><time>2026-07-16T02:02:06Z</time></rtept><rtept lat="36.07963" lon="-93.215601"><ele>327.7</ele><time>2026-07-16T02:02:06Z</time></rtept><rtept lat="36.078642" lon="-93.215687"><ele>319.3</ele><time>2026-07-16T02:02:06Z</time></rtept><rtept lat="36.077588" lon="-93.215574"><ele>308.7</ele><time>2026-07-16T02:02:06Z</time></rtept><rtept lat="36.076146" lon="-93.215235"><ele>302.2</ele><time>2026-07-16T02:02:06Z</time></rtept><rtept lat="36.075298" lon="-93.214868"><ele>296.0</ele><time>2026-07-16T02:02:06Z</time></rtept><rtept lat="36.074566" lon="-93.214332"><ele>290.5</ele><time>2026-07-16T02:02:06Z</time></rtept><rtept lat="36.074199" lon="-93.21388"><ele>289.2</ele><time>2026-07-16T02:02:06Z</time></rtept><rtept lat="36.071252" lon="-93.209581"><ele>260.0</ele><time>2026-07-16T02:02:06Z</time></rtept><rtept lat="36.071446" lon="-93.208703"><ele>253.9</ele><time>2026-07-16T02:02:06Z</time></rtept><rtept lat="36.071475" lon="-93.208411"><ele>253.0</ele><time>2026-07-16T02:02:06Z</time></rtept><rtept lat="36.071542" lon="-93.207723"><ele>257.9</ele><time>2026-07-16T02:02:06Z</time></rtept><rtept lat="36.071556" lon="-93.20721"><ele>268.4</ele><time>2026-07-16T02:02:06Z</time></rtept><rtept lat="36.071289" lon="-93.206983"><ele>270.5</ele><time>2026-07-16T02:02:06Z</time></rtept><rtept lat="36.071001" lon="-93.206738"><ele>270.6</ele><time>2026-07-16T02:02:06Z</time></rtept><rtept lat="36.07081" lon="-93.206716"><ele>270.8</ele><time>2026-07-16T02:02:06Z</time></rtept><rtept lat="36.070391" lon="-93.206236"><ele>276.2</ele><time>2026-07-16T02:02:06Z</time></rtept><rtept lat="36.0702" lon="-93.205703"><ele>283.5</ele><time>2026-07-16T02:02:06Z</time></rtept><rtept lat="36.07028" lon="-93.205331"><ele>287.3</ele><time>2026-07-16T02:02:06Z</time></rtept><rtept lat="36.070521" lon="-93.205207"><ele>288.1</ele><time>2026-07-16T02:02:06Z</time></rtept><rtept lat="36.071082" lon="-93.205628"><ele>288.9</ele><time>2026-07-16T02:02:06Z</time></rtept><rtept lat="36.071552" lon="-93.205033"><ele>299.3</ele><time>2026-07-16T02:02:06Z</time></rtept><rtept lat="36.071973" lon="-93.204761"><ele>304.0</ele><time>2026-07-16T02:02:06Z</time></rtept><rtept lat="36.071953" lon="-93.204352"><ele>301.4</ele><time>2026-07-16T02:02:06Z</time></rtept><rtept lat="36.071362" lon="-93.204401"><ele>296.7</ele><time>2026-07-16T02:02:06Z</time></rtept><rtept lat="36.071175" lon="-93.20393"><ele>293.9</ele><time>2026-07-16T02:02:06Z</time></rtept><rtept lat="36.071245" lon="-93.20341"><ele>291.5</ele><time>2026-07-16T02:02:06Z</time></rtept><rtept lat="36.070974" lon="-93.202927"><ele>287.5</ele><time>2026-07-16T02:02:06Z</time></rtept><rtept lat="36.070744" lon="-93.202815"><ele>289.3</ele><time>2026-07-16T02:02:06Z</time></rtept><rtept lat="36.070534" lon="-93.202976"><ele>290.6</ele><time>2026-07-16T02:02:06Z</time></rtept><rtept lat="36.070213" lon="-93.203013"><ele>293.6</ele><time>2026-07-16T02:02:06Z</time></rtept><rtept lat="36.069602" lon="-93.202505"><ele>301.8</ele><time>2026-07-16T02:02:06Z</time></rtept><rtept lat="36.069211" lon="-93.201427"><ele>310.1</ele><time>2026-07-16T02:02:06Z</time></rtept><rtept lat="36.069041" lon="-93.20056"><ele>312.0</ele><time>2026-07-16T02:02:06Z</time></rtept><rtept lat="36.06829" lon="-93.200473"><ele>305.3</ele><time>2026-07-16T02:02:06Z</time></rtept><rtept lat="36.067669" lon="-93.200646"><ele>295.8</ele><time>2026-07-16T02:02:06Z</time></rtept><rtept lat="36.067649" lon="-93.198242"><ele>298.0</ele><time>2026-07-16T02:02:06Z</time></rtept><rtept lat="36.06818" lon="-93.19673"><ele>290.9</ele><time>2026-07-16T02:02:06Z</time></rtept><rtept lat="36.06825" lon="-93.19616"><ele>287.2</ele><time>2026-07-16T02:02:06Z</time></rtept><rtept lat="36.067889" lon="-93.195503"><ele>279.5</ele><time>2026-07-16T02:02:06Z</time></rtept><rtept lat="36.067559" lon="-93.195054"><ele>273.5</ele><time>2026-07-16T02:02:06Z</time></rtept><rtept lat="36.067559" lon="-93.195054"><ele>273.5</ele><time>2026-07-16T02:02:06Z</time></rtept><rtept lat="36.066777" lon="-93.193991"><ele>260.1</ele><time>2026-07-16T02:02:06Z</time></rtept><rtept lat="36.066417" lon="-93.193641"><ele>258.1</ele><time>2026-07-16T02:02:06Z</time></rtept><rtept lat="36.065425" lon="-93.19348"><ele>263.0</ele><time>2026-07-16T02:02:06Z</time></rtept><rtept lat="36.063431" lon="-93.192092"><ele>254.7</ele><time>2026-07-16T02:02:06Z</time></rtept><rtept lat="36.062911" lon="-93.191522"><ele>249.4</ele><time>2026-07-16T02:02:06Z</time></rtept><rtept lat="36.062609" lon="-93.191182"><ele>247.0</ele><time>2026-07-16T02:02:06Z</time></rtept><rtept lat="36.062339" lon="-93.190877"><ele>253.9</ele><time>2026-07-16T02:02:06Z</time></rtept><rtept lat="36.060025" lon="-93.190344"><ele>266.5</ele><time>2026-07-16T02:02:06Z</time></rtept><rtept lat="36.059554" lon="-93.189948"><ele>268.5</ele><time>2026-07-16T02:02:06Z</time></rtept><rtept lat="36.059164" lon="-93.19032"><ele>263.9</ele><time>2026-07-16T02:02:06Z</time></rtept><rtept lat="36.058933" lon="-93.190096"><ele>265.4</ele><time>2026-07-16T02:02:06Z</time></rtept><rtept lat="36.059034" lon="-93.18913"><ele>274.2</ele><time>2026-07-16T02:02:06Z</time></rtept><rtept lat="36.058493" lon="-93.189217"><ele>267.5</ele><time>2026-07-16T02:02:06Z</time></rtept><rtept lat="36.056629" lon="-93.186453"><ele>246.9</ele><time>2026-07-16T02:02:06Z</time></rtept><rtept lat="36.056839" lon="-93.185858"><ele>247.3</ele><time>2026-07-16T02:02:06Z</time></rtept><rtept lat="36.056835" lon="-93.185586"><ele>245.2</ele><time>2026-07-16T02:02:06Z</time></rtept><rtept lat="36.056834" lon="-93.185556"><ele>245.0</ele><time>2026-07-16T02:02:06Z</time></rtept><rtept lat="36.056832" lon="-93.18556"><ele>245.0</ele><time>2026-07-16T02:02:06Z</time></rtept><rtept lat="36.056775" lon="-93.184286"><ele>252.9</ele><time>2026-07-16T02:02:06Z</time></rtept><rtept lat="36.05714" lon="-93.183589"><ele>249.3</ele><time>2026-07-16T02:02:06Z</time></rtept><rtept lat="36.057629" lon="-93.181137"><ele>258.9</ele><time>2026-07-16T02:02:06Z</time></rtept><rtept lat="36.057853" lon="-93.181058"><ele>255.4</ele><time>2026-07-16T02:02:06Z</time></rtept><rtept lat="36.058216" lon="-93.180204"><ele>251.7</ele><time>2026-07-16T02:02:06Z</time></rtept><rtept lat="36.05825" lon="-93.179106"><ele>248.6</ele><time>2026-07-16T02:02:06Z</time></rtept><rtept lat="36.057799" lon="-93.178497"><ele>246.8</ele><time>2026-07-16T02:02:06Z</time></rtept><rtept lat="36.057922" lon="-93.178362"><ele>244.4</ele><time>2026-07-16T02:02:06Z</time></rtept><rtept lat="36.058571" lon="-93.178573"><ele>245.2</ele><time>2026-07-16T02:02:06Z</time></rtept><rtept lat="36.058802" lon="-93.178383"><ele>243.8</ele><time>2026-07-16T02:02:06Z</time></rtept><rtept lat="36.058981" lon="-93.178235"><ele>250.2</ele><time>2026-07-16T02:02:06Z</time></rtept><rtept lat="36.057847" lon="-93.176249"><ele>255.0</ele><time>2026-07-16T02:02:06Z</time></rtept><rtept lat="36.05633" lon="-93.174795"><ele>253.3</ele><time>2026-07-16T02:02:06Z</time></rtept><rtept lat="36.055892" lon="-93.174068"><ele>252.4</ele><time>2026-07-16T02:02:06Z</time></rtept><rtept lat="36.055339" lon="-93.173468"><ele>248.7</ele><time>2026-07-16T02:02:06Z</time></rtept><rtept lat="36.055427" lon="-93.17318"><ele>250.2</ele><time>2026-07-16T02:02:06Z</time></rtept><rtept lat="36.055018" lon="-93.173104"><ele>248.9</ele><time>2026-07-16T02:02:06Z</time></rtept><rtept lat="36.054901" lon="-93.172808"><ele>248.4</ele><time>2026-07-16T02:02:06Z</time></rtept><rtept lat="36.05525" lon="-93.172217"><ele>257.0</ele><time>2026-07-16T02:02:06Z</time></rtept><rtept lat="36.055448" lon="-93.171371"><ele>259.4</ele><time>2026-07-16T02:02:06Z</time></rtept><rtept lat="36.05609" lon="-93.170957"><ele>261.2</ele><time>2026-07-16T02:02:06Z</time></rtept><rtept lat="36.056644" lon="-93.167671"><ele>265.7</ele><time>2026-07-16T02:02:06Z</time></rtept><rtept lat="36.056869" lon="-93.167383"><ele>268.6</ele><time>2026-07-16T02:02:06Z</time></rtept><rtept lat="36.05689" lon="-93.165879"><ele>260.5</ele><time>2026-07-16T02:02:06Z</time></rtept><rtept lat="36.057341" lon="-93.165228"><ele>263.1</ele><time>2026-07-16T02:02:06Z</time></rtept><rtept lat="36.057047" lon="-93.163783"><ele>255.9</ele><time>2026-07-16T02:02:06Z</time></rtept><rtept lat="36.057115" lon="-93.163225"><ele>250.9</ele><time>2026-07-16T02:02:06Z</time></rtept><rtept lat="36.05691" lon="-93.162751"><ele>243.3</ele><time>2026-07-16T02:02:06Z</time></rtept><rtept lat="36.057399" lon="-93.162237"><ele>241.0</ele><time>2026-07-16T02:02:06Z</time></rtept><rtept lat="36.05771" lon="-93.161911"><ele>242.6</ele><time>2026-07-16T02:02:06Z</time></rtept><rtept lat="36.058462" lon="-93.161809"><ele>244.5</ele><time>2026-07-16T02:02:06Z</time></rtept><rtept lat="36.058631" lon="-93.161444"><ele>248.2</ele><time>2026-07-16T02:02:06Z</time></rtept><rtept lat="36.058134" lon="-93.161172"><ele>246.3</ele><time>2026-07-16T02:02:06Z</time></rtept><rtept lat="36.058288" lon="-93.160874"><ele>250.8</ele><time>2026-07-16T02:02:06Z</time></rtept><rtept lat="36.05938" lon="-93.161069"><ele>260.8</ele><time>2026-07-16T02:02:06Z</time></rtept><rtept lat="36.060439" lon="-93.161437"><ele>258.8</ele><time>2026-07-16T02:02:06Z</time></rtept><rtept lat="36.060961" lon="-93.161263"><ele>263.4</ele><time>2026-07-16T02:02:06Z</time></rtept><rtept lat="36.061019" lon="-93.161102"><ele>264.9</ele><time>2026-07-16T02:02:06Z</time></rtept><rtept lat="36.061093" lon="-93.160895"><ele>266.2</ele><time>2026-07-16T02:02:06Z</time></rtept><rtept lat="36.060861" lon="-93.159697"><ele>273.9</ele><time>2026-07-16T02:02:06Z</time></rtept><rtept lat="36.059206" lon="-93.159053"><ele>283.0</ele><time>2026-07-16T02:02:06Z</time></rtept><rtept lat="36.058255" lon="-93.158643"><ele>282.6</ele><time>2026-07-16T02:02:06Z</time></rtept><rtept lat="36.058015" lon="-93.158305"><ele>281.4</ele><time>2026-07-16T02:02:06Z</time></rtept><rtept lat="36.058445" lon="-93.157302"><ele>271.8</ele><time>2026-07-16T02:02:06Z</time></rtept><rtept lat="36.058445" lon="-93.156647"><ele>272.6</ele><time>2026-07-16T02:02:06Z</time></rtept><rtept lat="36.058884" lon="-93.1559"><ele>265.9</ele><time>2026-07-16T02:02:06Z</time></rtept><rtept lat="36.05898" lon="-93.155755"><ele>264.0</ele><time>2026-07-16T02:02:06Z</time></rtept><rtept lat="36.059083" lon="-93.154664"><ele>262.0</ele><time>2026-07-16T02:02:06Z</time></rtept><rtept lat="36.058857" lon="-93.154299"><ele>263.3</ele><time>2026-07-16T02:02:06Z</time></rtept><rtept lat="36.058103" lon="-93.154121"><ele>263.1</ele><time>2026-07-16T02:02:06Z</time></rtept><rtept lat="36.056983" lon="-93.154557"><ele>270.0</ele><time>2026-07-16T02:02:06Z</time></rtept><rtept lat="36.057226" lon="-93.153891"><ele>270.4</ele><time>2026-07-16T02:02:06Z</time></rtept><rtept lat="36.058094" lon="-93.153011"><ele>267.1</ele><time>2026-07-16T02:02:06Z</time></rtept><rtept lat="36.057261" lon="-93.151831"><ele>264.1</ele><time>2026-07-16T02:02:06Z</time></rtept><rtept lat="36.056335" lon="-93.151603"><ele>270.0</ele><time>2026-07-16T02:02:06Z</time></rtept><rtept lat="36.054537" lon="-93.152025"><ele>270.7</ele><time>2026-07-16T02:02:06Z</time></rtept><rtept lat="36.053653" lon="-93.153119"><ele>265.4</ele><time>2026-07-16T02:02:06Z</time></rtept><rtept lat="36.053375" lon="-93.15284"><ele>265.9</ele><time>2026-07-16T02:02:06Z</time></rtept><rtept lat="36.052811" lon="-93.153117"><ele>269.2</ele><time>2026-07-16T02:02:06Z</time></rtept><rtept lat="36.053271" lon="-93.152046"><ele>262.5</ele><time>2026-07-16T02:02:06Z</time></rtept><rtept lat="36.052976" lon="-93.151295"><ele>260.9</ele><time>2026-07-16T02:02:06Z</time></rtept><rtept lat="36.052976" lon="-93.151273"><ele>261.3</ele><time>2026-07-16T02:02:06Z</time></rtept><rtept lat="36.054034" lon="-93.148892"><ele>287.7</ele><time>2026-07-16T02:02:06Z</time></rtept><rtept lat="36.054" lon="-93.148076"><ele>295.1</ele><time>2026-07-16T02:02:06Z</time></rtept><rtept lat="36.053618" lon="-93.147647"><ele>291.3</ele><time>2026-07-16T02:02:06Z</time></rtept><rtept lat="36.053531" lon="-93.147175"><ele>288.9</ele><time>2026-07-16T02:02:06Z</time></rtept><rtept lat="36.054798" lon="-93.145973"><ele>285.8</ele><time>2026-07-16T02:02:06Z</time></rtept><rtept lat="36.055197" lon="-93.144772"><ele>286.9</ele><time>2026-07-16T02:02:06Z</time></rtept><rtept lat="36.056081" lon="-93.144793"><ele>278.6</ele><time>2026-07-16T02:02:06Z</time></rtept><rtept lat="36.057296" lon="-93.143935"><ele>253.4</ele><time>2026-07-16T02:02:06Z</time></rtept><rtept lat="36.0574" lon="-93.143677"><ele>253.8</ele><time>2026-07-16T02:02:06Z</time></rtept><rtept lat="36.05936" lon="-93.142433"><ele>241.8</ele><time>2026-07-16T02:02:06Z</time></rtept><rtept lat="36.060245" lon="-93.141668"><ele>246.4</ele><time>2026-07-16T02:02:06Z</time></rtept><rtept lat="36.060474" lon="-93.141381"><ele>248.6</ele><time>2026-07-16T02:02:06Z</time></rtept></rte></gpx>